description,zipcrid,zip,state,lat,lon,geometry
,995,995,AK,61.2204045168074,-149.857806799271,"<Point><coordinates>-153.840643,61.707352</coordinates></Point>"
,996,996,AK,62.1847095042252,-159.844799722206,"<Point><coordinates>-154.689991,61.204902</coordinates></Point>"
,997,997,AK,67.1653852105161,-149.565750521068,"<Point><coordinates>-150.498104,66.689913</coordinates></Point>"
,998,998,AK,58.4042334183563,-134.093300246654,"<Point><coordinates>-134.797705,57.965401</coordinates></Point>"
,999,999,AK,55.5666543922493,-131.038793623187,"<Point><coordinates>-131.809527,55.720568</coordinates></Point>"
,350,350,AL,33.58,-86.52,"<Point><coordinates>-86.686178,33.448668</coordinates></Point>"
,351,351,AL,33.28,-87.1,"<Point><coordinates>-86.534236,33.458722</coordinates></Point>"
,352,352,AL,33.52,-86.8,"<Point><coordinates>-86.770883,33.501198</coordinates></Point>"
,354,354,AL,33.2,-87.56,"<Point><coordinates>-87.859848,33.067922</coordinates></Point>"
,355,355,AL,33.87,-87.25,"<Point><coordinates>-87.705641,33.953461</coordinates></Point>"
,356,356,AL,34.59,-86.99,"<Point><coordinates>-87.401524,34.669916</coordinates></Point>"
,357,357,AL,34.98,-86.83,"<Point><coordinates>-86.272284,34.747719</coordinates></Point>"
,358,358,AL,34.73,-86.57,"<Point><coordinates>-86.586034,34.698822</coordinates></Point>"
,359,359,AL,34,-86.01,"<Point><coordinates>-85.93032,34.273266</coordinates></Point>"
,360,360,AL,32.46,-86.71,"<Point><coordinates>-86.096317,32.085391</coordinates></Point>"
,361,361,AL,32.37,-86.3,"<Point><coordinates>-86.275071,32.321061</coordinates></Point>"
,362,362,AL,33.65,-85.84,"<Point><coordinates>-85.651074,33.522965</coordinates></Point>"
,363,363,AL,31.2,-85.42,"<Point><coordinates>-85.556667,31.33991</coordinates></Point>"
,364,364,AL,31.46,-86.93,"<Point><coordinates>-86.969617,31.374436</coordinates></Point>"
,365,365,AL,31.06,-87.49,"<Point><coordinates>-87.949224,31.039507</coordinates></Point>"
,366,366,AL,30.7,-88.04,"<Point><coordinates>-88.192013,30.692315</coordinates></Point>"
,367,367,AL,32.42,-87.02,"<Point><coordinates>-87.350414,32.318658</coordinates></Point>"
,368,368,AL,32.63,-85.36,"<Point><coordinates>-85.400719,32.603676</coordinates></Point>"
,369,369,AL,32.45,-88.13,"<Point><coordinates>-88.252304,32.128714</coordinates></Point>"
,716,716,AR,34.175467173805,-91.9029061601629,"<Point><coordinates>-91.766768,33.609914</coordinates></Point>"
,717,717,AR,33.5809859534291,-92.800256696238,"<Point><coordinates>-92.793268,33.472253</coordinates></Point>"
,718,718,AR,33.630415724679,-93.5924898008291,"<Point><coordinates>-93.834123,33.658693</coordinates></Point>"
,719,719,AR,34.5273975868208,-92.969999008905,"<Point><coordinates>-93.581194,34.395232</coordinates></Point>"
,720,720,AR,35.0730071424796,-92.8759657989141,"<Point><coordinates>-91.927784,34.881863</coordinates></Point>"
,721,721,AR,35.249998295666,-91.1558903368073,"<Point><coordinates>-92.071771,34.892668</coordinates></Point>"
,722,722,AR,34.7481136519069,-92.2812981257623,"<Point><coordinates>-92.357627,34.697448</coordinates></Point>"
,723,723,AR,35.1472226412001,-90.183531390363,"<Point><coordinates>-90.578289,35.080138</coordinates></Point>"
,724,724,AR,35.8756299703386,-90.6563763682345,"<Point><coordinates>-90.759146,36.035671</coordinates></Point>"
,725,725,AR,35.8018229476555,-91.670959159898,"<Point><coordinates>-91.810406,36.013782</coordinates></Point>"
,726,726,AR,36.207281876702,-93.1032123146195,"<Point><coordinates>-92.926012,36.156089</coordinates></Point>"
,727,727,AR,35.9905541677824,-94.0878619700068,"<Point><coordinates>-94.034499,36.103115</coordinates></Point>"
,728,728,AR,35.2832775187892,-93.1446455359156,"<Point><coordinates>-93.339818,35.292295</coordinates></Point>"
,729,729,AR,35.36537656733,-94.4164205634337,"<Point><coordinates>-94.096365,35.272224</coordinates></Point>"
,850,850,AZ,33.4530592359291,-112.074462595517,"<Point><coordinates>-112.084172,33.623811</coordinates></Point>"
,851,851,AZ,33.3375169935201,-111.363156984042,"<Point><coordinates>-111.417486,32.976754</coordinates></Point>"
,852,852,AZ,33.4356481297387,-111.848063991554,"<Point><coordinates>-111.647534,33.291606</coordinates></Point>"
,853,853,AZ,33.5324319946392,-112.178614175404,"<Point><coordinates>-113.35065,33.247693</coordinates></Point>"
,855,855,AZ,33.5426935315652,-110.747486384607,"<Point><coordinates>-110.264523,33.408318</coordinates></Point>"
,856,856,AZ,31.5900204239582,-111.316265952538,"<Point><coordinates>-110.612907,32.004527</coordinates></Point>"
,857,857,AZ,32.2170039792985,-110.970979810618,"<Point><coordinates>-111.103305,32.182545</coordinates></Point>"
,859,859,AZ,34.3193821863216,-110.048816171116,"<Point><coordinates>-109.813638,34.223175</coordinates></Point>"
,860,860,AZ,35.3089114017153,-111.660659735038,"<Point><coordinates>-111.36659,35.908937</coordinates></Point>"
,863,863,AZ,34.435920715332,-112.642791748047,"<Point><coordinates>-112.531671,34.819054</coordinates></Point>"
,864,864,AZ,35.1365357072998,-113.690353213388,"<Point><coordinates>-113.785773,35.667843</coordinates></Point>"
,865,865,AZ,35.2298067506791,-109.574707111341,"<Point><coordinates>-109.548582,36.030104</coordinates></Point>"
,900,900,CA,33.973937214767,-118.249154932769,"<Point><coordinates>-118.313481,34.04366</coordinates></Point>"
,902,902,CA,33.9690105264812,-118.171118928973,"<Point><coordinates>-118.545989,33.990577</coordinates></Point>"
,903,903,CA,33.9571047834811,-118.35744332579,"<Point><coordinates>-118.346214,33.953656</coordinates></Point>"
,904,904,CA,34.0143918701592,-118.494353350979,"<Point><coordinates>-118.484126,34.022852</coordinates></Point>"
,905,905,CA,33.8319909881811,-118.313399643803,"<Point><coordinates>-118.33262,33.835791</coordinates></Point>"
,906,906,CA,34.0073648517239,-118.032113691689,"<Point><coordinates>-118.033047,33.933101</coordinates></Point>"
,907,907,CA,33.8675850804778,-118.080597838252,"<Point><coordinates>-118.396951,33.419217</coordinates></Point>"
,908,908,CA,33.7707682521576,-118.188845360461,"<Point><coordinates>-118.169762,33.795358</coordinates></Point>"
,910,910,CA,34.2134887379243,-118.132584624474,"<Point><coordinates>-118.143771,34.23469</coordinates></Point>"
,911,911,CA,34.1466441646778,-118.139276896195,"<Point><coordinates>-118.116455,34.163963</coordinates></Point>"
,912,912,CA,34.1685679715691,-118.290036994559,"<Point><coordinates>-118.243837,34.190998</coordinates></Point>"
,913,913,CA,34.1225967224077,-118.758466874289,"<Point><coordinates>-118.57094,34.380902</coordinates></Point>"
,914,914,CA,34.1781890710026,-118.43153915327,"<Point><coordinates>-118.463756,34.17838</coordinates></Point>"
,915,915,CA,34.2004816546945,-118.295786455574,"<Point><coordinates>-118.324011,34.188267</coordinates></Point>"
,916,916,CA,34.1684571711736,-118.372479461909,"<Point><coordinates>-118.389023,34.171361</coordinates></Point>"
,917,917,CA,34.1425251974868,-117.60290624151,"<Point><coordinates>-117.778654,34.132733</coordinates></Point>"
,918,918,CA,34.0906249264215,-118.127817065917,"<Point><coordinates>-118.135744,34.08386</coordinates></Point>"
,919,919,CA,32.81845780606,-116.706606911186,"<Point><coordinates>-116.575081,32.732346</coordinates></Point>"
,920,920,CA,33.2846779803005,-117.201008374418,"<Point><coordinates>-116.64858,33.154983</coordinates></Point>"
,921,921,CA,32.7246806043719,-117.173051806901,"<Point><coordinates>-117.113589,32.808128</coordinates></Point>"
,922,922,CA,33.7182006835938,-116.193374633789,"<Point><coordinates>-115.460985,33.719116</coordinates></Point>"
,923,923,CA,34.6554246195716,-117.531973511791,"<Point><coordinates>-116.381865,35.214405</coordinates></Point>"
,924,924,CA,34.0974426269531,-117.292900085449,"<Point><coordinates>-117.341393,34.190105</coordinates></Point>"
,925,925,CA,33.9962289444077,-117.372113197087,"<Point><coordinates>-117.014098,33.667067</coordinates></Point>"
,926,926,CA,33.7144622802734,-117.749462127686,"<Point><coordinates>-117.710861,33.62738</coordinates></Point>"
,927,927,CA,33.7477293921381,-117.858478359441,"<Point><coordinates>-117.866601,33.735528</coordinates></Point>"
,928,928,CA,33.8445516464666,-117.952160192472,"<Point><coordinates>-117.703514,33.840502</coordinates></Point>"
,930,930,CA,34.3729934692383,-119.306915283203,"<Point><coordinates>-119.188451,34.31005</coordinates></Point>"
,931,931,CA,34.4186024574826,-119.711394170516,"<Point><coordinates>-119.934099,34.386596</coordinates></Point>"
,932,932,CA,35.8572184204906,-119.508351557106,"<Point><coordinates>-119.233715,35.782464</coordinates></Point>"
,933,933,CA,35.3838346917292,-119.020614191079,"<Point><coordinates>-119.001445,35.381513</coordinates></Point>"
,934,934,CA,35.275550489648,-120.620165622727,"<Point><coordinates>-120.38919,35.283189</coordinates></Point>"
,935,935,CA,35.0790034628258,-118.151309202109,"<Point><coordinates>-118.096289,36.358912</coordinates></Point>"
,936,936,CA,37.3895981661663,-119.730946587235,"<Point><coordinates>-119.688755,36.971642</coordinates></Point>"
,937,937,CA,36.7495660903982,-119.787934331893,"<Point><coordinates>-119.843671,36.705385</coordinates></Point>"
,938,938,CA,36.730474294524,-119.725941763422,"<Point><coordinates>-119.725991,36.730483</coordinates></Point>"
,939,939,CA,36.6501420311276,-121.636756628855,"<Point><coordinates>-121.424581,36.30532</coordinates></Point>"
,940,940,CA,37.509530419843,-122.305762401494,"<Point><coordinates>-122.294377,37.413952</coordinates></Point>"
,941,941,CA,37.7794080047758,-122.419451165707,"<Point><coordinates>-122.436965,37.747717</coordinates></Point>"
,943,943,CA,37.4438445383255,-122.150506175182,"<Point><coordinates>-122.144808,37.425925</coordinates></Point>"
,944,944,CA,37.5771197794017,-122.317118628766,"<Point><coordinates>-122.30561,37.551514</coordinates></Point>"
,945,945,CA,37.7739475495704,-122.278133375117,"<Point><coordinates>-122.026647,38.05303</coordinates></Point>"
,946,946,CA,37.7765345360962,-122.218165933852,"<Point><coordinates>-122.21128,37.789569</coordinates></Point>"
,947,947,CA,37.8686107470079,-122.270421704961,"<Point><coordinates>-122.273314,37.879731</coordinates></Point>"
,948,948,CA,37.9456101971964,-122.387842824294,"<Point><coordinates>-122.334863,37.9592</coordinates></Point>"
,949,949,CA,37.9801961247807,-122.496927433769,"<Point><coordinates>-122.724854,38.128972</coordinates></Point>"
,950,950,CA,36.9807575139575,-121.898675773918,"<Point><coordinates>-121.417288,36.844445</coordinates></Point>"
,951,951,CA,37.3382931108107,-121.89242936278,"<Point><coordinates>-121.768695,37.323489</coordinates></Point>"
,952,952,CA,37.9545299933552,-121.288235528405,"<Point><coordinates>-120.775698,38.156954</coordinates></Point>"
,953,953,CA,37.2927047671525,-120.630560649706,"<Point><coordinates>-120.392771,37.687522</coordinates></Point>"
,954,954,CA,38.4489902716351,-122.792646406946,"<Point><coordinates>-123.131893,39.1585</coordinates></Point>"
,955,955,CA,40.8068114978809,-124.146955271951,"<Point><coordinates>-123.782242,40.808151</coordinates></Point>"
,956,956,CA,38.4197077786226,-120.830145291484,"<Point><coordinates>-121.247871,38.638917</coordinates></Point>"
,957,957,CA,39.2183498815989,-120.780578623087,"<Point><coordinates>-120.741804,38.869125</coordinates></Point>"
,958,958,CA,38.5975799560547,-121.489967346191,"<Point><coordinates>-121.437869,38.574735</coordinates></Point>"
,959,959,CA,39.2220415365871,-121.489669723668,"<Point><coordinates>-121.620858,39.552638</coordinates></Point>"
,960,960,CA,40.6197355,-122.466042,"<Point><coordinates>-122.299478,41.005127</coordinates></Point>"
,961,961,CA,41.4561646886194,-120.531036481769,"<Point><coordinates>-120.484121,40.556761</coordinates></Point>"
,976,976,CA,41.9021926088624,-120.429162553467,"<Point><coordinates>-120.388964,41.895371</coordinates></Point>"
,800,800,CO,39.8029464281182,-105.086776494994,"<Point><coordinates>-104.899626,39.813761</coordinates></Point>"
,801,801,CO,39.4209921786779,-103.979404977291,"<Point><coordinates>-104.487069,39.505237</coordinates></Point>"
,802,802,CO,39.7510601281815,-104.988937485127,"<Point><coordinates>-104.939097,39.773375</coordinates></Point>"
,803,803,CO,40.0482155754208,-105.198402817015,"<Point><coordinates>-105.299762,40.026882</coordinates></Point>"
,804,804,CO,39.7167850743254,-105.235711799486,"<Point><coordinates>-106.194321,40.000942</coordinates></Point>"
,805,805,CO,40.1652771360022,-105.103323762259,"<Point><coordinates>-105.354047,40.546333</coordinates></Point>"
,806,806,CO,39.9616076491581,-104.808521324269,"<Point><coordinates>-104.480912,40.403522</coordinates></Point>"
,807,807,CO,40.1338487007889,-103.827750948066,"<Point><coordinates>-103.063176,40.38442</coordinates></Point>"
,808,808,CO,39.7428207397461,-102.934062957764,"<Point><coordinates>-103.476715,39.099935</coordinates></Point>"
,809,809,CO,38.8330805558942,-104.820795061749,"<Point><coordinates>-104.672295,38.782005</coordinates></Point>"
,810,810,CO,38.2961692839032,-104.532222896756,"<Point><coordinates>-103.586525,37.795474</coordinates></Point>"
,811,811,CO,37.4808803426685,-105.834408797175,"<Point><coordinates>-106.439552,37.547947</coordinates></Point>"
,812,812,CO,38.5550216804407,-106.150424621088,"<Point><coordinates>-106.334963,38.482266</coordinates></Point>"
,813,813,CO,37.5124298364661,-107.842444799951,"<Point><coordinates>-108.445132,37.484211</coordinates></Point>"
,814,814,CO,38.4997545560548,-107.757319144705,"<Point><coordinates>-108.020163,38.4398</coordinates></Point>"
,815,815,CO,39.072572399621,-108.54709639049,"<Point><coordinates>-108.694529,38.90884</coordinates></Point>"
,816,816,CO,39.5729219127,-107.298714487102,"<Point><coordinates>-107.884085,40.002509</coordinates></Point>"
,060,060,CT,41.791323312423,-72.8538070382769,"<Point><coordinates>-72.81683,41.883599</coordinates></Point>"
,061,061,CT,41.7665105110331,-72.6739123853212,"<Point><coordinates>-72.691636,41.743263</coordinates></Point>"
,062,062,CT,41.7116675054123,-72.209578732112,"<Point><coordinates>-72.114857,41.811664</coordinates></Point>"
,063,063,CT,41.3480984424915,-72.101774487309,"<Point><coordinates>-72.031708,41.497714</coordinates></Point>"
,064,064,CT,41.3447619004598,-73.068704647852,"<Point><coordinates>-72.748019,41.436201</coordinates></Point>"
,065,065,CT,41.3065308822495,-72.9254397526833,"<Point><coordinates>-72.947692,41.356668</coordinates></Point>"
,066,066,CT,41.1800867345248,-73.1882191885825,"<Point><coordinates>-73.217275,41.234071</coordinates></Point>"
,067,067,CT,41.5576423631254,-73.0442500417673,"<Point><coordinates>-73.234752,41.675051</coordinates></Point>"
,068,068,CT,41.3746365195841,-73.3929386660894,"<Point><coordinates>-73.45214,41.242047</coordinates></Point>"
,069,069,CT,41.0536387488792,-73.5380348358793,"<Point><coordinates>-73.554899,41.099391</coordinates></Point>"
,200,200,DC,38.909354202485,-77.018291198081,"<Point><coordinates>-77.015294,38.906758</coordinates></Point>"
,202,202,DC,38.8867516574341,-77.0144709703781,"<Point><coordinates>-77.031891,38.873233</coordinates></Point>"
,203,203,DC,38.8751560958833,-77.0047744823591,"<Point><coordinates>-77.014349,38.874536</coordinates></Point>"
,204,204,DC,38.8995501686509,-77.0108592828245,"<Point><coordinates>-77.037914,38.892086</coordinates></Point>"
,205,205,DC,38.8970364053709,-77.0386913138627,"<Point><coordinates>-77.033018,38.890041</coordinates></Point>"
,197,197,DE,39.5851778604444,-75.6993444178467,"<Point><coordinates>-75.661308,39.553141</coordinates></Point>"
,198,198,DE,39.7199903027395,-75.5360425565111,"<Point><coordinates>-75.572918,39.767092</coordinates></Point>"
,199,199,DE,39.1770947440935,-75.470750343342,"<Point><coordinates>-75.459721,38.831439</coordinates></Point>"
,320,320,FL,30.0983366668554,-81.7125696669104,"<Point><coordinates>-82.418284,30.216589</coordinates></Point>"
,321,321,FL,29.1401911772041,-81.5806373025909,"<Point><coordinates>-81.518829,29.368016</coordinates></Point>"
,322,322,FL,30.3250390143547,-81.6475584471313,"<Point><coordinates>-81.688025,30.299467</coordinates></Point>"
,323,323,FL,30.4260195397831,-84.2581293363592,"<Point><coordinates>-84.214456,30.237183</coordinates></Point>"
,324,324,FL,30.1598668331915,-85.6608949730357,"<Point><coordinates>-85.57208,30.506857</coordinates></Point>"
,325,325,FL,30.4290172325173,-87.2226023234106,"<Point><coordinates>-86.944063,30.705281</coordinates></Point>"
,326,326,FL,29.6482763706911,-82.3253991114188,"<Point><coordinates>-82.62968,29.564696</coordinates></Point>"
,327,327,FL,28.6653242094452,-81.3700765187301,"<Point><coordinates>-81.274948,28.805795</coordinates></Point>"
,328,328,FL,28.5419208375714,-81.3735419934766,"<Point><coordinates>-81.288491,28.473243</coordinates></Point>"
,329,329,FL,28.079851609552,-80.6228416385671,"<Point><coordinates>-80.67685,28.036437</coordinates></Point>"
,330,330,FL,24.8222541320461,-80.8130286990699,"<Point><coordinates>-80.734017,25.538955</coordinates></Point>"
,331,331,FL,25.7792976772295,-80.198739344675,"<Point><coordinates>-80.492439,25.766591</coordinates></Point>"
,332,332,FL,25.7530511782694,-80.3522224018526,"<Point><coordinates>-80.32505,25.760131</coordinates></Point>"
,333,333,FL,26.1176415819016,-80.1308312017517,"<Point><coordinates>-80.31073,26.153361</coordinates></Point>"
,334,334,FL,26.7164620484305,-80.0679903009926,"<Point><coordinates>-80.674135,26.66738</coordinates></Point>"
,335,335,FL,27.8946187697537,-82.2952577761035,"<Point><coordinates>-82.216107,28.206991</coordinates></Point>"
,336,336,FL,27.9476242994936,-82.4593818877537,"<Point><coordinates>-82.462262,28.011283</coordinates></Point>"
,337,337,FL,27.7712318668985,-82.6327709287806,"<Point><coordinates>-82.726143,27.849324</coordinates></Point>"
,338,338,FL,28.0404002534827,-81.898692799639,"<Point><coordinates>-81.623144,27.708001</coordinates></Point>"
,339,339,FL,26.6211776964518,-81.8798637219262,"<Point><coordinates>-81.756601,26.758028</coordinates></Point>"
,341,341,FL,26.1631231775748,-81.7910415124289,"<Point><coordinates>-81.264319,25.958493</coordinates></Point>"
,342,342,FL,27.4029539184964,-82.4678544586049,"<Point><coordinates>-82.174346,27.294087</coordinates></Point>"
,344,344,FL,29.0535051297967,-82.0375177142963,"<Point><coordinates>-82.354722,29.023499</coordinates></Point>"
,346,346,FL,28.5889700360968,-82.3628647325171,"<Point><coordinates>-82.539301,28.406207</coordinates></Point>"
,347,347,FL,28.6984451100225,-81.7188181775715,"<Point><coordinates>-81.418661,28.295758</coordinates></Point>"
,349,349,FL,27.4284900131201,-80.5580266026307,"<Point><coordinates>-80.704557,27.301741</coordinates></Point>"
,300,300,GA,33.7730158046469,-84.2609449907712,"<Point><coordinates>-84.068721,33.851495</coordinates></Point>"
,301,301,GA,34.0464272931166,-84.7174620310926,"<Point><coordinates>-84.908979,34.039864</coordinates></Point>"
,302,302,GA,33.0654908986182,-84.1243062355557,"<Point><coordinates>-84.547361,33.241166</coordinates></Point>"
,303,303,GA,33.7554224110405,-84.3904423185221,"<Point><coordinates>-84.421505,33.772718</coordinates></Point>"
,304,304,GA,32.6011846649215,-82.3556505753396,"<Point><coordinates>-82.102696,32.485784</coordinates></Point>"
,305,305,GA,34.318491517408,-83.8163250323863,"<Point><coordinates>-83.802002,34.578813</coordinates></Point>"
,306,306,GA,34.0012471348538,-83.3477457452317,"<Point><coordinates>-83.1353,33.858072</coordinates></Point>"
,307,307,GA,34.4950209046968,-84.9488077416536,"<Point><coordinates>-85.109259,34.709276</coordinates></Point>"
,308,308,GA,33.6027696941132,-82.3175835241293,"<Point><coordinates>-82.341795,33.354462</coordinates></Point>"
,309,309,GA,33.4442440781378,-81.9557007755313,"<Point><coordinates>-82.017688,33.41476</coordinates></Point>"
,310,310,GA,31.9770399600794,-83.3396043385899,"<Point><coordinates>-83.408048,32.6332</coordinates></Point>"
,311,311,GA,33.7867771098879,-84.3569380016955,"<Point><coordinates>-84.421196,33.767764</coordinates></Point>"
,312,312,GA,32.8103666451106,-83.6156318431325,"<Point><coordinates>-83.638658,32.8366</coordinates></Point>"
,313,313,GA,31.7336041244747,-81.6002628126523,"<Point><coordinates>-81.45742,31.912566</coordinates></Point>"
,314,314,GA,32.0809717434094,-81.0910191790849,"<Point><coordinates>-81.121044,32.001434</coordinates></Point>"
,315,315,GA,31.2265672904882,-82.3481757160748,"<Point><coordinates>-82.178677,31.308476</coordinates></Point>"
,316,316,GA,30.7467408869859,-83.3378229898237,"<Point><coordinates>-83.078256,30.961219</coordinates></Point>"
,317,317,GA,31.5526839794266,-84.1580262870696,"<Point><coordinates>-83.866476,31.482541</coordinates></Point>"
,318,318,GA,32.5168580631801,-84.609515754007,"<Point><coordinates>-84.689621,32.443123</coordinates></Point>"
,319,319,GA,32.4648495001655,-84.9799969162734,"<Point><coordinates>-84.909984,32.440513</coordinates></Point>"
,398,398,GA,31.44,-84.73,"<Point><coordinates>-84.671328,31.320522</coordinates></Point>"
,399,399,GA,33.89,-84.29,"<Point><coordinates>-84.299784,33.881179</coordinates></Point>"
,967,967,HI,21.4011482576839,-157.904383063401,"<Point><coordinates>-156.350765,20.252567</coordinates></Point>"
,968,968,HI,21.3061946563826,-157.860581650147,"<Point><coordinates>-157.828493,21.322244</coordinates></Point>"
,500,500,IA,41.3619920401542,-93.4302459949799,"<Point><coordinates>-93.935418,41.619861</coordinates></Point>"
,501,501,IA,42.6832605238418,-93.6230799230252,"<Point><coordinates>-93.476186,41.551647</coordinates></Point>"
,502,502,IA,42.0320586141107,-93.4448259754117,"<Point><coordinates>-93.600962,41.626002</coordinates></Point>"
,503,503,IA,41.5982787527623,-93.6183491119715,"<Point><coordinates>-93.628232,41.595974</coordinates></Point>"
,504,504,IA,43.1504545464054,-93.190878551239,"<Point><coordinates>-93.363889,43.17113</coordinates></Point>"
,505,505,IA,42.4986931418664,-94.1930311208964,"<Point><coordinates>-94.445829,42.771555</coordinates></Point>"
,506,506,IA,42.5716799018138,-93.0598990794034,"<Point><coordinates>-92.463221,42.657879</coordinates></Point>"
,507,507,IA,42.419273282397,-92.3429597118283,"<Point><coordinates>-92.301093,42.485454</coordinates></Point>"
,508,508,IA,41.0821774794778,-94.3897870939328,"<Point><coordinates>-94.556129,40.964166</coordinates></Point>"
,510,510,IA,42.8370549640281,-96.5295442513648,"<Point><coordinates>-95.910057,42.605831</coordinates></Point>"
,511,511,IA,42.4921510559109,-96.3956004027437,"<Point><coordinates>-96.37977,42.534133</coordinates></Point>"
,512,512,IA,43.179092056173,-95.8655949168677,"<Point><coordinates>-96.048042,43.277524</coordinates></Point>"
,513,513,IA,43.1505788465013,-95.1537629858126,"<Point><coordinates>-95.142641,43.268469</coordinates></Point>"
,514,514,IA,42.0659012471647,-94.8677039047007,"<Point><coordinates>-95.071075,42.109733</coordinates></Point>"
,515,515,IA,41.2272459391606,-95.8785896480012,"<Point><coordinates>-95.546684,41.447476</coordinates></Point>"
,516,516,IA,40.727336773966,-95.3498150374424,"<Point><coordinates>-95.366793,40.739434</coordinates></Point>"
,520,520,IA,42.5511331019046,-90.6938679699436,"<Point><coordinates>-90.969239,42.457386</coordinates></Point>"
,521,521,IA,43.3570205094057,-91.7707846142111,"<Point><coordinates>-91.736697,43.206188</coordinates></Point>"
,522,522,IA,41.3289972846074,-91.549311611982,"<Point><coordinates>-91.772918,41.89757</coordinates></Point>"
,523,523,IA,41.7931259896802,-92.0886743763937,"<Point><coordinates>-91.73633,41.874353</coordinates></Point>"
,524,524,IA,41.9754515759122,-91.6587232808614,"<Point><coordinates>-91.675666,41.965725</coordinates></Point>"
,525,525,IA,41.0398315023944,-92.4261131740305,"<Point><coordinates>-92.456377,40.947833</coordinates></Point>"
,526,526,IA,40.8531983762476,-91.1161576638519,"<Point><coordinates>-91.436295,40.876369</coordinates></Point>"
,527,527,IA,41.9803123905222,-90.2501094169332,"<Point><coordinates>-90.874942,41.638555</coordinates></Point>"
,528,528,IA,41.5209267340746,-90.5727618108654,"<Point><coordinates>-90.610623,41.564862</coordinates></Point>"
,832,832,ID,42.8886499734165,-112.384763990947,"<Point><coordinates>-113.00234,43.410855</coordinates></Point>"
,833,833,ID,42.3842576882812,-114.545720251561,"<Point><coordinates>-114.165689,42.788978</coordinates></Point>"
,834,834,ID,43.5341915816788,-111.89178470194,"<Point><coordinates>-112.449763,44.278161</coordinates></Point>"
,835,835,ID,46.206981664275,-116.894008355629,"<Point><coordinates>-115.664428,46.123769</coordinates></Point>"
,836,836,ID,43.8674534778506,-115.214352508738,"<Point><coordinates>-115.96754,43.750659</coordinates></Point>"
,837,837,ID,43.6746597907283,-116.173600962301,"<Point><coordinates>-115.998375,43.546608</coordinates></Point>"
,838,838,ID,47.9259428512469,-116.61335338962,"<Point><coordinates>-116.403197,47.720901</coordinates></Point>"
,600,600,IL,42.4662404387949,-88.0903664084775,"<Point><coordinates>-88.150713,42.291725</coordinates></Point>"
,601,601,IL,41.9305325271102,-88.0109598925425,"<Point><coordinates>-88.477361,42.016147</coordinates></Point>"
,602,602,IL,42.0571994310305,-87.6972198809591,"<Point><coordinates>-87.69153,42.046567</coordinates></Point>"
,603,603,IL,41.8887415,-87.797339,"<Point><coordinates>-87.799068,41.889485</coordinates></Point>"
,604,604,IL,41.3448280269972,-87.6136303858411,"<Point><coordinates>-88.102802,41.386509</coordinates></Point>"
,605,605,IL,41.7790800424201,-87.8225321709905,"<Point><coordinates>-88.534801,41.681868</coordinates></Point>"
,606,606,IL,41.8825398007363,-87.6170341724478,"<Point><coordinates>-87.680683,41.833857</coordinates></Point>"
,607,607,IL,41.9662182709667,-87.8247877899285,"<Point><coordinates>-87.801875,41.985099</coordinates></Point>"
,608,608,IL,41.6728907112029,-87.7356475427103,"<Point><coordinates>-87.707724,41.721016</coordinates></Point>"
,609,609,IL,41.1118261796384,-87.895302999839,"<Point><coordinates>-87.923971,40.799233</coordinates></Point>"
,610,610,IL,42.461775998744,-90.1199352525753,"<Point><coordinates>-89.590523,42.171541</coordinates></Point>"
,611,611,IL,42.3393532817447,-89.1450467793414,"<Point><coordinates>-89.079788,42.28058</coordinates></Point>"
,612,612,IL,41.4773469431392,-90.5756580247925,"<Point><coordinates>-90.312121,41.492355</coordinates></Point>"
,613,613,IL,41.3971737197897,-89.0847501902343,"<Point><coordinates>-89.183984,41.343988</coordinates></Point>"
,614,614,IL,40.9477155586975,-90.3770395165132,"<Point><coordinates>-90.420571,40.825724</coordinates></Point>"
,615,615,IL,40.2181227045297,-90.3382737250423,"<Point><coordinates>-89.726964,40.682392</coordinates></Point>"
,616,616,IL,40.6853082787099,-89.5961539323079,"<Point><coordinates>-89.610966,40.705258</coordinates></Point>"
,617,617,IL,40.4773293616214,-88.9929517624364,"<Point><coordinates>-88.889709,40.52651</coordinates></Point>"
,618,618,IL,40.1091749632868,-88.211720397613,"<Point><coordinates>-88.154669,40.111005</coordinates></Point>"
,619,619,IL,39.6719139573295,-88.3004715249177,"<Point><coordinates>-88.183758,39.653109</coordinates></Point>"
,620,620,IL,38.8789226541955,-89.742664405366,"<Point><coordinates>-89.988376,39.121145</coordinates></Point>"
,622,622,IL,38.6359781128238,-90.1386315091169,"<Point><coordinates>-89.722431,38.406043</coordinates></Point>"
,623,623,IL,39.9321873790474,-91.3881269553304,"<Point><coordinates>-91.024734,40.002214</coordinates></Point>"
,624,624,IL,39.1288060342145,-88.5656886508417,"<Point><coordinates>-88.189082,39.036294</coordinates></Point>"
,625,625,IL,39.9300714079118,-88.8048747661186,"<Point><coordinates>-89.19453,39.641288</coordinates></Point>"
,626,626,IL,39.7513304021467,-90.036908633606,"<Point><coordinates>-90.012127,39.845918</coordinates></Point>"
,627,627,IL,39.8006445879473,-89.6489354460011,"<Point><coordinates>-89.652924,39.796448</coordinates></Point>"
,628,628,IL,38.5141677482224,-89.1479437499822,"<Point><coordinates>-88.64075,38.354756</coordinates></Point>"
,629,629,IL,37.7393059296799,-89.2092239341777,"<Point><coordinates>-88.896955,37.550072</coordinates></Point>"
,460,460,IN,40.2490326631515,-85.6604766032736,"<Point><coordinates>-86.130868,40.169069</coordinates></Point>"
,461,461,IN,39.9957985443484,-86.6207323444806,"<Point><coordinates>-86.176422,39.617464</coordinates></Point>"
,462,462,IN,39.774368495365,-86.1099344223293,"<Point><coordinates>-86.13907,39.783851</coordinates></Point>"
,463,463,IN,41.354187181952,-87.1339394070235,"<Point><coordinates>-87.057679,41.409108</coordinates></Point>"
,464,464,IN,41.5911331176758,-87.3176460266113,"<Point><coordinates>-87.332116,41.552998</coordinates></Point>"
,465,465,IN,41.2252549078993,-86.2491706564752,"<Point><coordinates>-86.0874,41.432887</coordinates></Point>"
,466,466,IN,41.6702049492145,-86.253235761054,"<Point><coordinates>-86.300152,41.659597</coordinates></Point>"
,467,467,IN,41.3602344246026,-85.4332165372665,"<Point><coordinates>-85.213833,41.174122</coordinates></Point>"
,468,468,IN,41.0676991557614,-85.1636048766536,"<Point><coordinates>-85.158446,41.084455</coordinates></Point>"
,469,469,IN,40.5172015497062,-86.1736315998843,"<Point><coordinates>-86.137726,40.760666</coordinates></Point>"
,470,470,IN,39.0720973474655,-84.9695646731743,"<Point><coordinates>-85.084056,39.1513</coordinates></Point>"
,471,471,IN,38.7612413784866,-85.7939819655916,"<Point><coordinates>-86.041941,38.425116</coordinates></Point>"
,472,472,IN,39.1584242360673,-85.9875906472,"<Point><coordinates>-85.734912,39.042629</coordinates></Point>"
,473,473,IN,40.1289691276104,-85.379503711764,"<Point><coordinates>-85.154092,40.084374</coordinates></Point>"
,474,474,IN,39.086308800016,-86.4491124350979,"<Point><coordinates>-86.64486,38.997734</coordinates></Point>"
,475,475,IN,38.6688287307839,-87.1701009348687,"<Point><coordinates>-87.036322,38.469537</coordinates></Point>"
,476,476,IN,38.0557415654432,-87.2555279881309,"<Point><coordinates>-87.512575,38.125003</coordinates></Point>"
,477,477,IN,37.9736809515628,-87.5744780952135,"<Point><coordinates>-87.591023,38.017313</coordinates></Point>"
,478,478,IN,39.4347246416598,-87.4195524379051,"<Point><coordinates>-87.290749,39.44367</coordinates></Point>"
,479,479,IN,40.4176571390859,-86.8896877616407,"<Point><coordinates>-87.100987,40.491693</coordinates></Point>"
,660,660,KS,39.5259575757627,-95.1438618723446,"<Point><coordinates>-95.127341,38.835052</coordinates></Point>"
,661,661,KS,39.1180459523452,-94.6253277831705,"<Point><coordinates>-94.755506,39.124602</coordinates></Point>"
,662,662,KS,39.0190112199163,-94.6621865158926,"<Point><coordinates>-94.732289,38.962843</coordinates></Point>"
,664,664,KS,38.9637657534162,-96.2982049109343,"<Point><coordinates>-96.109523,39.368524</coordinates></Point>"
,665,665,KS,39.054521279093,-96.2359200447588,"<Point><coordinates>-96.155137,39.356745</coordinates></Point>"
,666,666,KS,39.0536633643854,-95.6716291803012,"<Point><coordinates>-95.761658,39.065784</coordinates></Point>"
,667,667,KS,37.8229420830579,-94.762875393186,"<Point><coordinates>-95.225554,37.635668</coordinates></Point>"
,668,668,KS,38.4032803525372,-96.2128490891523,"<Point><coordinates>-96.384338,38.359991</coordinates></Point>"
,669,669,KS,39.5660313154135,-97.6510488386379,"<Point><coordinates>-97.875482,39.77452</coordinates></Point>"
,670,670,KS,37.762698102043,-97.6336396163513,"<Point><coordinates>-97.717645,37.480847</coordinates></Point>"
,671,671,KS,37.7841703402216,-97.4660664736285,"<Point><coordinates>-97.863578,37.50633</coordinates></Point>"
,672,672,KS,37.6906747492605,-97.3413330297057,"<Point><coordinates>-97.329753,37.697748</coordinates></Point>"
,673,673,KS,37.2016397573024,-95.7370792646526,"<Point><coordinates>-95.802188,37.233931</coordinates></Point>"
,674,674,KS,38.8307993782383,-97.6479782607837,"<Point><coordinates>-97.782979,38.982676</coordinates></Point>"
,675,675,KS,37.9795397177997,-97.929425181393,"<Point><coordinates>-98.974019,38.236326</coordinates></Point>"
,676,676,KS,38.8809138107917,-99.3461423972058,"<Point><coordinates>-99.481035,39.334362</coordinates></Point>"
,677,677,KS,39.3886477444736,-101.043974687085,"<Point><coordinates>-101.160351,39.348436</coordinates></Point>"
,678,678,KS,37.7236616334268,-100.056437419582,"<Point><coordinates>-100.809687,37.896601</coordinates></Point>"
,679,679,KS,37.1032726381042,-100.896861603871,"<Point><coordinates>-101.401487,37.165714</coordinates></Point>"
,400,400,KY,38.2669817779299,-85.0404502462486,"<Point><coordinates>-85.293091,38.055115</coordinates></Point>"
,401,401,KY,38.0901625500663,-86.3419270014558,"<Point><coordinates>-86.164937,37.856001</coordinates></Point>"
,402,402,KY,38.2569535227733,-85.7530665725393,"<Point><coordinates>-85.659527,38.186216</coordinates></Point>"
,403,403,KY,37.754273367125,-84.7704021630338,"<Point><coordinates>-84.221561,38.06165</coordinates></Point>"
,404,404,KY,37.2942708803056,-83.9707692255605,"<Point><coordinates>-84.397273,37.530816</coordinates></Point>"
,405,405,KY,38.0145605118225,-84.4830185611164,"<Point><coordinates>-84.457342,38.040925</coordinates></Point>"
,406,406,KY,38.2340468286879,-84.8798497376827,"<Point><coordinates>-84.879921,38.233995</coordinates></Point>"
,407,407,KY,36.9236502680238,-84.1628628450868,"<Point><coordinates>-84.123594,36.930241</coordinates></Point>"
,408,408,KY,36.890991461849,-83.2622964409262,"<Point><coordinates>-83.274742,36.889841</coordinates></Point>"
,409,409,KY,36.8533412794047,-83.6185317293643,"<Point><coordinates>-83.721652,36.961886</coordinates></Point>"
,410,410,KY,38.9123917034665,-84.4018791035501,"<Point><coordinates>-84.324385,38.653726</coordinates></Point>"
,411,411,KY,38.4759380437244,-82.6498494946098,"<Point><coordinates>-83.062042,38.381413</coordinates></Point>"
,412,412,KY,38.0719629210363,-82.7506223111723,"<Point><coordinates>-82.682687,37.902059</coordinates></Point>"
,413,413,KY,37.726994401166,-83.4792603364373,"<Point><coordinates>-83.445588,37.585282</coordinates></Point>"
,414,414,KY,37.8017801377958,-83.2874766744199,"<Point><coordinates>-83.168054,37.855863</coordinates></Point>"
,415,415,KY,37.5112353895855,-82.5174776247574,"<Point><coordinates>-82.405223,37.460105</coordinates></Point>"
,416,416,KY,37.6050075514878,-82.7240324649496,"<Point><coordinates>-82.775297,37.539907</coordinates></Point>"
,417,417,KY,37.3019502109522,-83.1883931471445,"<Point><coordinates>-83.260466,37.235622</coordinates></Point>"
,418,418,KY,37.1413375066267,-82.9866982092599,"<Point><coordinates>-82.881825,37.211924</coordinates></Point>"
,420,420,KY,37.0382611555834,-88.7111856361284,"<Point><coordinates>-88.548604,36.902528</coordinates></Point>"
,421,421,KY,37.068521840411,-86.4774058525933,"<Point><coordinates>-86.085916,36.888739</coordinates></Point>"
,422,422,KY,36.6816384497279,-86.8578844580928,"<Point><coordinates>-87.143515,36.930651</coordinates></Point>"
,423,423,KY,37.7430211824506,-87.2469919485694,"<Point><coordinates>-87.017421,37.517254</coordinates></Point>"
,424,424,KY,37.482656135537,-87.8374364161047,"<Point><coordinates>-87.701394,37.469523</coordinates></Point>"
,425,425,KY,37.0627777451041,-84.4461654106728,"<Point><coordinates>-84.700949,37.157038</coordinates></Point>"
,426,426,KY,36.7321631878304,-85.1319253118037,"<Point><coordinates>-84.8193,36.809082</coordinates></Point>"
,427,427,KY,37.7100602404879,-85.8418917583616,"<Point><coordinates>-85.732577,37.318307</coordinates></Point>"
,700,700,LA,29.9832533970946,-90.1656731464449,"<Point><coordinates>-89.90905,29.674521</coordinates></Point>"
,701,701,LA,29.9573769973816,-90.0767828917252,"<Point><coordinates>-89.957947,30.062393</coordinates></Point>"
,703,703,LA,29.8247620843281,-90.7653161702697,"<Point><coordinates>-90.74544,29.519977</coordinates></Point>"
,704,704,LA,30.5283173890168,-90.4560168474993,"<Point><coordinates>-90.232885,30.59527</coordinates></Point>"
,705,705,LA,30.2399345041065,-91.9903915075036,"<Point><coordinates>-92.179285,30.1391</coordinates></Point>"
,706,706,LA,30.228526643571,-93.2154397334199,"<Point><coordinates>-93.236672,30.347368</coordinates></Point>"
,707,707,LA,30.6130515341655,-90.9013627513625,"<Point><coordinates>-91.226335,30.557564</coordinates></Point>"
,708,708,LA,30.4497837732086,-91.1867483304765,"<Point><coordinates>-91.097224,30.436702</coordinates></Point>"
,710,710,LA,32.5932855986961,-92.9078825008009,"<Point><coordinates>-93.402534,32.449985</coordinates></Point>"
,711,711,LA,32.5061815982994,-93.7481853608055,"<Point><coordinates>-93.773971,32.476784</coordinates></Point>"
,712,712,LA,32.532842645371,-92.1055929320994,"<Point><coordinates>-91.950317,32.568994</coordinates></Point>"
,713,713,LA,31.2661112857081,-92.4698672596442,"<Point><coordinates>-91.869111,31.435774</coordinates></Point>"
,714,714,LA,31.8041010787391,-91.952487367106,"<Point><coordinates>-92.859602,31.566744</coordinates></Point>"
,010,010,MA,42.0616643313109,-72.6261717519071,"<Point><coordinates>-72.602048,42.256299</coordinates></Point>"
,011,011,MA,42.1056970748294,-72.5980788159072,"<Point><coordinates>-72.54686,42.100458</coordinates></Point>"
,012,012,MA,42.4604768859696,-73.2799065895365,"<Point><coordinates>-73.207956,42.370907</coordinates></Point>"
,013,013,MA,42.6271204390973,-72.6052347738515,"<Point><coordinates>-72.523436,42.58403</coordinates></Point>"
,014,014,MA,42.5853946189292,-71.8170603313981,"<Point><coordinates>-71.817516,42.590387</coordinates></Point>"
,015,015,MA,42.1968723825208,-71.8453871667191,"<Point><coordinates>-71.858953,42.227974</coordinates></Point>"
,016,016,MA,42.2627769501199,-71.8034163487472,"<Point><coordinates>-71.846091,42.279686</coordinates></Point>"
,017,017,MA,42.3216788633089,-71.4381268836105,"<Point><coordinates>-71.454505,42.342522</coordinates></Point>"
,018,018,MA,42.485950411217,-71.1553696696814,"<Point><coordinates>-71.215867,42.641052</coordinates></Point>"
,019,019,MA,42.4611177631441,-70.9471790675534,"<Point><coordinates>-70.88362,42.648969</coordinates></Point>"
,020,020,MA,42.0776195305726,-71.4741105603547,"<Point><coordinates>-71.140672,42.141431</coordinates></Point>"
,021,021,MA,42.3591461181641,-71.0582618713379,"<Point><coordinates>-71.048786,42.312943</coordinates></Point>"
,022,022,MA,42.3582224850777,-71.0584272136915,"<Point><coordinates>-71.063203,42.347379</coordinates></Point>"
,023,023,MA,42.077750776689,-71.0424176095744,"<Point><coordinates>-70.845879,41.96855</coordinates></Point>"
,024,024,MA,42.4586405819602,-71.2189195226034,"<Point><coordinates>-71.232164,42.360131</coordinates></Point>"
,025,025,MA,41.7453608223818,-70.5898646522039,"<Point><coordinates>-70.544296,41.508254</coordinates></Point>"
,026,026,MA,41.6573731603875,-70.29491426762,"<Point><coordinates>-70.179301,41.756823</coordinates></Point>"
,027,027,MA,41.784464601322,-71.0607687937182,"<Point><coordinates>-71.074302,41.765945</coordinates></Point>"
,055,055,MA,42.6458955741974,-71.1845560974449,"<Point><coordinates>-71.18456,42.645896</coordinates></Point>"
,206,206,MD,38.6176487130023,-76.8552682490031,"<Point><coordinates>-76.756987,38.385392</coordinates></Point>"
,207,207,MD,39.1250801086426,-76.8025207519531,"<Point><coordinates>-76.78384,38.880873</coordinates></Point>"
,208,208,MD,38.9664106077759,-77.1436065879662,"<Point><coordinates>-77.237252,39.150538</coordinates></Point>"
,209,209,MD,39.0211103305952,-77.0086258706669,"<Point><coordinates>-77.012655,39.062377</coordinates></Point>"
,210,210,MD,39.4748982668505,-76.2084143365847,"<Point><coordinates>-76.528857,39.390408</coordinates></Point>"
,211,211,MD,39.6865546812135,-76.8461063568031,"<Point><coordinates>-76.715132,39.498351</coordinates></Point>"
,212,212,MD,39.2939663221704,-76.6223873270678,"<Point><coordinates>-76.571706,39.307681</coordinates></Point>"
,214,214,MD,38.9895247020291,-76.5502419322359,"<Point><coordinates>-76.498759,38.988822</coordinates></Point>"
,215,215,MD,39.6507163772859,-78.757285164752,"<Point><coordinates>-79.068147,39.562225</coordinates></Point>"
,216,216,MD,38.795345473114,-76.0826444285563,"<Point><coordinates>-76.025794,38.849234</coordinates></Point>"
,217,217,MD,39.4477721717067,-77.3342903346635,"<Point><coordinates>-77.496906,39.520562</coordinates></Point>"
,218,218,MD,38.3759221931837,-75.643197513886,"<Point><coordinates>-75.579548,38.255233</coordinates></Point>"
,219,219,MD,39.5860120050281,-75.9577879719871,"<Point><coordinates>-75.940652,39.570177</coordinates></Point>"
,039,039,ME,43.3007423979992,-70.8443320278534,"<Point><coordinates>-70.743953,43.231595</coordinates></Point>"
,040,040,ME,43.530478933588,-70.9212281508382,"<Point><coordinates>-70.567615,43.772784</coordinates></Point>"
,041,041,ME,43.6625913163183,-70.257401913842,"<Point><coordinates>-70.255962,43.676904</coordinates></Point>"
,042,042,ME,44.0858138032372,-70.2490130345192,"<Point><coordinates>-70.496432,44.395769</coordinates></Point>"
,043,043,ME,44.3646757311266,-69.7369123220753,"<Point><coordinates>-69.744016,44.303294</coordinates></Point>"
,044,044,ME,44.8496480032224,-68.8459384951881,"<Point><coordinates>-68.968158,45.603041</coordinates></Point>"
,045,045,ME,43.893249051325,-69.8307580002148,"<Point><coordinates>-69.565575,43.98479</coordinates></Point>"
,046,046,ME,44.672309805652,-68.4163627150221,"<Point><coordinates>-67.910564,44.717249</coordinates></Point>"
,047,047,ME,46.2244491577148,-68.0458221435547,"<Point><coordinates>-68.64653,46.654475</coordinates></Point>"
,048,048,ME,44.1271505890025,-69.13599237229,"<Point><coordinates>-69.07934,44.175258</coordinates></Point>"
,049,049,ME,44.5632899904824,-69.5641341856591,"<Point><coordinates>-69.971883,45.08389</coordinates></Point>"
,480,480,MI,42.6282798388879,-82.6035401296559,"<Point><coordinates>-82.797489,42.833165</coordinates></Point>"
,481,481,MI,42.2597690407606,-83.210596855792,"<Point><coordinates>-83.628356,42.202527</coordinates></Point>"
,482,482,MI,42.3471911159562,-83.0598142059895,"<Point><coordinates>-83.105923,42.383264</coordinates></Point>"
,483,483,MI,42.5444879145632,-83.2827613043148,"<Point><coordinates>-83.351144,42.661503</coordinates></Point>"
,484,484,MI,43.3558773657758,-82.6557478813792,"<Point><coordinates>-83.211406,43.299193</coordinates></Point>"
,485,485,MI,43.0232171956033,-83.6846955616744,"<Point><coordinates>-83.691646,43.023383</coordinates></Point>"
,486,486,MI,43.4035118960656,-83.893505206679,"<Point><coordinates>-84.361006,43.995406</coordinates></Point>"
,487,487,MI,43.5920946979295,-83.559784695017,"<Point><coordinates>-83.564506,44.040736</coordinates></Point>"
,488,488,MI,43.3777885172072,-84.684241361527,"<Point><coordinates>-84.678957,43.023088</coordinates></Point>"
,489,489,MI,42.732003184025,-84.5562254793493,"<Point><coordinates>-84.585415,42.732225</coordinates></Point>"
,490,490,MI,42.2595104882704,-85.5628619110252,"<Point><coordinates>-85.543726,42.198778</coordinates></Point>"
,491,491,MI,41.9469734789537,-86.4846095761511,"<Point><coordinates>-86.364024,41.875665</coordinates></Point>"
,492,492,MI,42.2178421020508,-84.3325958251953,"<Point><coordinates>-84.35073,42.050142</coordinates></Point>"
,493,493,MI,42.9781070984737,-85.4770374956038,"<Point><coordinates>-85.55586,43.335542</coordinates></Point>"
,494,494,MI,42.9771676357922,-85.950775116634,"<Point><coordinates>-86.147362,43.379291</coordinates></Point>"
,495,495,MI,42.9714053245279,-85.673598756693,"<Point><coordinates>-85.660484,42.953722</coordinates></Point>"
,496,496,MI,44.245573824603,-85.5123242943873,"<Point><coordinates>-85.52821,44.462045</coordinates></Point>"
,497,497,MI,45.7591072720879,-84.7391209172509,"<Point><coordinates>-84.477466,45.556339</coordinates></Point>"
,498,498,MI,45.9177189428847,-88.0016047086249,"<Point><coordinates>-86.941339,46.182437</coordinates></Point>"
,499,499,MI,47.2972533852939,-88.3944397708433,"<Point><coordinates>-88.925487,46.66392</coordinates></Point>"
,550,550,MN,44.9043528624202,-92.8172853147218,"<Point><coordinates>-92.977505,45.147977</coordinates></Point>"
,551,551,MN,44.9513038663891,-93.0896884777847,"<Point><coordinates>-93.082026,44.961271</coordinates></Point>"
,553,553,MN,45.2437477901365,-93.6653996962003,"<Point><coordinates>-94.062016,44.992555</coordinates></Point>"
,554,554,MN,44.9843710512365,-93.2680422414005,"<Point><coordinates>-93.317781,45.01218</coordinates></Point>"
,556,556,MN,47.3421357159064,-91.8658736681554,"<Point><coordinates>-91.032339,47.672865</coordinates></Point>"
,557,557,MN,46.9532675137386,-92.6790425109495,"<Point><coordinates>-92.65294,47.401946</coordinates></Point>"
,558,558,MN,46.7501708265733,-92.0696802969516,"<Point><coordinates>-92.090087,46.976979</coordinates></Point>"
,559,559,MN,44.0698029778462,-92.5071532999375,"<Point><coordinates>-92.277408,43.887399</coordinates></Point>"
,560,560,MN,44.1283566225667,-93.9680113632388,"<Point><coordinates>-94.03932,44.0186</coordinates></Point>"
,561,561,MN,43.880673275152,-95.1454231984648,"<Point><coordinates>-95.65095,43.923898</coordinates></Point>"
,562,562,MN,45.0989460220347,-95.0368285343685,"<Point><coordinates>-95.754159,45.088887</coordinates></Point>"
,563,563,MN,45.4862839713321,-94.2444885417603,"<Point><coordinates>-94.612403,45.829085</coordinates></Point>"
,564,564,MN,46.3149549778537,-94.1140730157854,"<Point><coordinates>-94.481753,46.624795</coordinates></Point>"
,565,565,MN,46.8472552661181,-95.7868692243276,"<Point><coordinates>-96.078596,46.864416</coordinates></Point>"
,566,566,MN,47.5177270529915,-94.8687457156468,"<Point><coordinates>-94.385607,47.970479</coordinates></Point>"
,567,567,MN,48.1167487598457,-96.2129515826595,"<Point><coordinates>-96.132831,48.39625</coordinates></Point>"
,630,630,MO,38.6458315800886,-90.6533349198744,"<Point><coordinates>-90.814233,38.363347</coordinates></Point>"
,631,631,MO,38.6313400360811,-90.1925691487329,"<Point><coordinates>-90.327938,38.630649</coordinates></Point>"
,633,633,MO,38.8576219430335,-90.4786960769061,"<Point><coordinates>-91.116119,39.019406</coordinates></Point>"
,634,634,MO,39.6897766304968,-91.453354398292,"<Point><coordinates>-91.784356,39.929952</coordinates></Point>"
,635,635,MO,40.1544326418964,-92.5976087018416,"<Point><coordinates>-92.619223,40.198381</coordinates></Point>"
,636,636,MO,37.8215727802955,-90.5448520289696,"<Point><coordinates>-90.641929,37.591624</coordinates></Point>"
,637,637,MO,37.3347740159417,-89.5779989391967,"<Point><coordinates>-89.799634,37.382916</coordinates></Point>"
,638,638,MO,36.916598905204,-89.6041484865915,"<Point><coordinates>-89.727215,36.559367</coordinates></Point>"
,639,639,MO,36.7747202583846,-90.4948098489566,"<Point><coordinates>-90.610713,36.82901</coordinates></Point>"
,640,640,MO,39.1080143669925,-93.5406718264966,"<Point><coordinates>-94.104913,39.072923</coordinates></Point>"
,641,641,MO,39.1034967190666,-94.6004185756761,"<Point><coordinates>-94.570005,39.137732</coordinates></Point>"
,644,644,MO,39.6343243443714,-94.7096962496306,"<Point><coordinates>-94.696764,40.135367</coordinates></Point>"
,645,645,MO,39.7652458132719,-94.844575175313,"<Point><coordinates>-94.827454,39.746842</coordinates></Point>"
,646,646,MO,39.8012632212208,-93.5715941199403,"<Point><coordinates>-93.552035,39.891723</coordinates></Point>"
,647,647,MO,38.6177246167216,-94.3279599211994,"<Point><coordinates>-94.138382,38.051154</coordinates></Point>"
,648,648,MO,37.1104988902976,-94.4953508767139,"<Point><coordinates>-94.335016,36.926804</coordinates></Point>"
,649,649,MO,39.0796396853011,-94.5895505551609,"<Point><coordinates>-94.589523,39.079643</coordinates></Point>"
,650,650,MO,38.3084340292804,-92.016309928371,"<Point><coordinates>-92.232352,38.447701</coordinates></Point>"
,651,651,MO,38.4925984137413,-92.1487290451796,"<Point><coordinates>-92.195593,38.522227</coordinates></Point>"
,652,652,MO,38.8946942907989,-92.2429063440571,"<Point><coordinates>-92.385393,39.207055</coordinates></Point>"
,653,653,MO,38.7034829524165,-93.2178862346515,"<Point><coordinates>-93.253848,38.694934</coordinates></Point>"
,654,654,MO,37.8989138244303,-91.7652130132752,"<Point><coordinates>-91.754641,37.660563</coordinates></Point>"
,655,655,MO,37.4543705319525,-91.5554384191057,"<Point><coordinates>-91.883834,37.619313</coordinates></Point>"
,656,656,MO,37.5292441606429,-93.5992049752787,"<Point><coordinates>-92.993278,37.077781</coordinates></Point>"
,657,657,MO,37.0549547277088,-92.5038615268977,"<Point><coordinates>-92.884782,37.088569</coordinates></Point>"
,658,658,MO,37.2154949580771,-93.2951577100801,"<Point><coordinates>-93.305026,37.227992</coordinates></Point>"
,386,386,MS,34.46,-89.57,"<Point><coordinates>-89.767354,34.57006</coordinates></Point>"
,387,387,MS,33.38,-91.05,"<Point><coordinates>-90.805304,33.526265</coordinates></Point>"
,388,388,MS,34.25,-88.72,"<Point><coordinates>-88.628162,34.354196</coordinates></Point>"
,389,389,MS,33.78,-89.81,"<Point><coordinates>-89.899907,33.784279</coordinates></Point>"
,390,390,MS,33.18,-90.49,"<Point><coordinates>-90.092737,32.496228</coordinates></Point>"
,391,391,MS,33.16,-89.33,"<Point><coordinates>-90.341999,32.360506</coordinates></Point>"
,392,392,MS,32.29,-90.19,"<Point><coordinates>-90.201971,32.314394</coordinates></Point>"
,393,393,MS,32.36,-88.66,"<Point><coordinates>-88.80253,32.427264</coordinates></Point>"
,394,394,MS,31.31,-89.31,"<Point><coordinates>-89.266721,31.244164</coordinates></Point>"
,395,395,MS,30.38,-89.1,"<Point><coordinates>-89.02603,30.584074</coordinates></Point>"
,396,396,MS,31.59,-90.45,"<Point><coordinates>-90.679061,31.315145</coordinates></Point>"
,397,397,MS,33.54,-88.43,"<Point><coordinates>-88.871293,33.526356</coordinates></Point>"
,590,590,MT,45.5011131044969,-109.542404644987,"<Point><coordinates>-108.610324,45.950486</coordinates></Point>"
,591,591,MT,45.6079479689162,-108.374623924168,"<Point><coordinates>-108.420658,45.658887</coordinates></Point>"
,592,592,MT,48.2730818187568,-105.692902786009,"<Point><coordinates>-105.625686,48.180128</coordinates></Point>"
,593,593,MT,46.2836079433779,-105.7517563543,"<Point><coordinates>-105.573245,46.385621</coordinates></Point>"
,594,594,MT,47.5116271102928,-111.274149988128,"<Point><coordinates>-111.232596,47.800021</coordinates></Point>"
,595,595,MT,48.7059690249999,-109.812040925252,"<Point><coordinates>-109.094172,48.378305</coordinates></Point>"
,596,596,MT,46.5217877987401,-112.237287226898,"<Point><coordinates>-111.799509,46.66798</coordinates></Point>"
,597,597,MT,46.0250679410344,-112.483907685438,"<Point><coordinates>-112.313593,45.461227</coordinates></Point>"
,598,598,MT,46.8549663564173,-114.01055272952,"<Point><coordinates>-114.217563,46.981719</coordinates></Point>"
,599,599,MT,48.2127929412941,-114.262701403193,"<Point><coordinates>-114.568998,48.364614</coordinates></Point>"
,270,270,NC,35.944154767362,-80.4375524832553,"<Point><coordinates>-80.454567,36.247291</coordinates></Point>"
,271,271,NC,36.1124388403777,-80.1981745032435,"<Point><coordinates>-80.246434,36.074052</coordinates></Point>"
,272,272,NC,36.0341493747207,-79.4848227765294,"<Point><coordinates>-79.717196,35.855671</coordinates></Point>"
,273,273,NC,36.1137617402711,-79.6670901352506,"<Point><coordinates>-79.566863,35.829431</coordinates></Point>"
,274,274,NC,36.0701837787156,-79.765353431769,"<Point><coordinates>-79.818004,36.0725</coordinates></Point>"
,275,275,NC,35.4866835237636,-78.6849167366256,"<Point><coordinates>-78.541571,35.938449</coordinates></Point>"
,276,276,NC,35.774546975621,-78.6335626379463,"<Point><coordinates>-78.638886,35.809109</coordinates></Point>"
,277,277,NC,35.9992131522831,-78.8974021043429,"<Point><coordinates>-78.887374,35.996733</coordinates></Point>"
,278,278,NC,35.911301017443,-77.7362497363615,"<Point><coordinates>-77.276239,35.859951</coordinates></Point>"
,279,279,NC,36.2943983738579,-76.279138912324,"<Point><coordinates>-76.3801,36.095159</coordinates></Point>"
,280,280,NC,35.3380545838021,-80.2048636961832,"<Point><coordinates>-81.009895,35.366878</coordinates></Point>"
,281,281,NC,35.2591545608355,-81.0751634949308,"<Point><coordinates>-80.738049,35.249014</coordinates></Point>"
,282,282,NC,35.228090311133,-80.844576450685,"<Point><coordinates>-80.82961,35.210975</coordinates></Point>"
,283,283,NC,35.0728678360261,-78.8820186331544,"<Point><coordinates>-78.931043,34.958038</coordinates></Point>"
,284,284,NC,34.2884959985927,-77.9732475175734,"<Point><coordinates>-78.216522,34.387132</coordinates></Point>"
,285,285,NC,35.24718464208,-77.5218101208042,"<Point><coordinates>-77.186042,35.038209</coordinates></Point>"
,286,286,NC,35.7737886755865,-81.3234174983992,"<Point><coordinates>-81.354482,36.059572</coordinates></Point>"
,287,287,NC,35.7046068980945,-82.6441361544307,"<Point><coordinates>-82.820451,35.505266</coordinates></Point>"
,288,288,NC,35.5926254108125,-82.5587806852849,"<Point><coordinates>-82.553509,35.58003</coordinates></Point>"
,289,289,NC,35.2011909056353,-83.8037653687555,"<Point><coordinates>-83.960221,35.110023</coordinates></Point>"
,580,580,ND,46.4481123107106,-96.7252933517733,"<Point><coordinates>-97.385114,46.654334</coordinates></Point>"
,581,581,ND,46.9225255902435,-96.8345880108148,"<Point><coordinates>-96.834637,46.863719</coordinates></Point>"
,582,582,ND,47.8692884797004,-97.1382251805771,"<Point><coordinates>-97.7089,48.25257</coordinates></Point>"
,583,583,ND,48.1359338600427,-98.8681713084186,"<Point><coordinates>-99.344172,48.327905</coordinates></Point>"
,584,584,ND,46.8844054550392,-98.7728914909846,"<Point><coordinates>-99.111952,46.877726</coordinates></Point>"
,585,585,ND,46.8186294579499,-100.664816036226,"<Point><coordinates>-101.005326,46.755598</coordinates></Point>"
,586,586,ND,46.9063953745423,-102.832733298554,"<Point><coordinates>-103.00994,46.73863</coordinates></Point>"
,587,587,ND,48.137212273738,-101.322553576244,"<Point><coordinates>-101.690717,48.340352</coordinates></Point>"
,588,588,ND,48.2063811565085,-103.741495573277,"<Point><coordinates>-103.466719,48.210664</coordinates></Point>"
,680,680,NE,41.3346538062571,-96.950992219064,"<Point><coordinates>-96.459355,41.548545</coordinates></Point>"
,681,681,NE,41.2626398339796,-95.9334273498473,"<Point><coordinates>-96.040947,41.247339</coordinates></Point>"
,683,683,NE,40.4640710171369,-96.5201157140357,"<Point><coordinates>-96.851486,40.420333</coordinates></Point>"
,684,684,NE,40.7354457968392,-97.5827404311999,"<Point><coordinates>-96.653942,40.541996</coordinates></Point>"
,685,685,NE,40.8179339970835,-96.7106828002538,"<Point><coordinates>-96.680122,40.825093</coordinates></Point>"
,686,686,NE,41.4514628904348,-97.3961402075511,"<Point><coordinates>-97.703678,41.560155</coordinates></Point>"
,687,687,NE,42.015608072222,-97.4387658352527,"<Point><coordinates>-98.148118,42.434492</coordinates></Point>"
,688,688,NE,40.9511548551949,-98.2943093463507,"<Point><coordinates>-99.145671,41.353176</coordinates></Point>"
,689,689,NE,40.5926564239487,-98.3790201757302,"<Point><coordinates>-98.892311,40.337494</coordinates></Point>"
,690,690,NE,40.2258588106205,-100.656834106844,"<Point><coordinates>-100.97784,40.367989</coordinates></Point>"
,691,691,NE,41.1486251355156,-100.794659189912,"<Point><coordinates>-101.545248,41.417532</coordinates></Point>"
,692,692,NE,42.7512031926979,-100.614728689874,"<Point><coordinates>-100.626242,42.682826</coordinates></Point>"
,693,693,NE,42.1420253148762,-102.990846980509,"<Point><coordinates>-102.841734,42.282712</coordinates></Point>"
,030,030,NH,42.8706400439212,-71.6071227268889,"<Point><coordinates>-71.505356,42.903144</coordinates></Point>"
,031,031,NH,42.9885494067885,-71.4658168318337,"<Point><coordinates>-71.471981,42.996873</coordinates></Point>"
,032,032,NH,43.973130815468,-71.497906160348,"<Point><coordinates>-71.663756,43.569732</coordinates></Point>"
,033,033,NH,43.2239498579263,-71.5427492929508,"<Point><coordinates>-71.561827,43.261828</coordinates></Point>"
,034,034,NH,42.9668030237277,-72.2966382515709,"<Point><coordinates>-72.190899,42.908936</coordinates></Point>"
,035,035,NH,44.3316432398807,-71.8115783174944,"<Point><coordinates>-71.31133,44.709604</coordinates></Point>"
,036,036,NH,43.2307902853101,-72.3142009400845,"<Point><coordinates>-72.323742,43.177432</coordinates></Point>"
,037,037,NH,44.1826196257556,-71.989711298376,"<Point><coordinates>-72.125032,43.694865</coordinates></Point>"
,038,038,NH,43.0727535404586,-70.8040595470843,"<Point><coordinates>-71.112862,43.607596</coordinates></Point>"
,070,070,NJ,40.5833124911422,-74.2703150322948,"<Point><coordinates>-74.279082,40.759676</coordinates></Point>"
,071,071,NJ,40.7360788262677,-74.1729850398849,"<Point><coordinates>-74.175075,40.738458</coordinates></Point>"
,072,072,NJ,40.6705538121771,-74.177558305216,"<Point><coordinates>-74.211843,40.666665</coordinates></Point>"
,073,073,NJ,40.7196913409189,-74.0416013537876,"<Point><coordinates>-74.067729,40.715508</coordinates></Point>"
,074,074,NJ,41.0331440150586,-74.1332355995617,"<Point><coordinates>-74.396433,41.102194</coordinates></Point>"
,075,075,NJ,40.9137295,-74.1748495,"<Point><coordinates>-74.178349,40.929024</coordinates></Point>"
,076,076,NJ,40.8890286852354,-74.0457692553894,"<Point><coordinates>-74.010184,40.942849</coordinates></Point>"
,077,077,NJ,40.3606127258978,-74.0780750505036,"<Point><coordinates>-74.167198,40.285595</coordinates></Point>"
,078,078,NJ,40.9151229858398,-74.5807952880859,"<Point><coordinates>-74.799263,40.972887</coordinates></Point>"
,079,079,NJ,40.7149350827677,-74.3650397802954,"<Point><coordinates>-74.546995,40.741404</coordinates></Point>"
,080,080,NJ,39.5518083812818,-75.3523123924866,"<Point><coordinates>-74.827498,39.773533</coordinates></Point>"
,081,081,NJ,39.9460607680924,-75.121656324572,"<Point><coordinates>-75.077211,39.941848</coordinates></Point>"
,082,082,NJ,39.4174745326912,-74.4863687744038,"<Point><coordinates>-74.675978,39.325126</coordinates></Point>"
,083,083,NJ,39.4432178725377,-75.2570920000732,"<Point><coordinates>-75.044682,39.438489</coordinates></Point>"
,084,084,NJ,39.3712423143469,-74.4506296702894,"<Point><coordinates>-74.475306,39.35374</coordinates></Point>"
,085,085,NJ,40.1580562619548,-74.5528156970313,"<Point><coordinates>-74.618565,40.247775</coordinates></Point>"
,086,086,NJ,40.2200553459778,-74.7606863536026,"<Point><coordinates>-74.679,40.200693</coordinates></Point>"
,087,087,NJ,40.0767642288466,-74.2037196449787,"<Point><coordinates>-74.227883,39.955896</coordinates></Point>"
,088,088,NJ,40.6240218011197,-74.8843774239638,"<Point><coordinates>-74.729304,40.547845</coordinates></Point>"
,089,089,NJ,40.485235841938,-74.4442962197644,"<Point><coordinates>-74.469594,40.458441</coordinates></Point>"
,870,870,NM,35.4417405933432,-106.415596552522,"<Point><coordinates>-106.921593,35.229078</coordinates></Point>"
,871,871,NM,35.0720135792048,-106.646755335758,"<Point><coordinates>-106.744109,35.157459</coordinates></Point>"
,873,873,NM,35.5338566501351,-108.830854433318,"<Point><coordinates>-108.521062,35.466857</coordinates></Point>"
,874,874,NM,36.7678758470071,-108.220337273646,"<Point><coordinates>-108.181538,36.608698</coordinates></Point>"
,875,875,NM,35.7219903171486,-105.831763721834,"<Point><coordinates>-106.041029,36.279646</coordinates></Point>"
,877,877,NM,35.5527413592627,-104.995930612554,"<Point><coordinates>-104.673025,36.074468</coordinates></Point>"
,878,878,NM,34.0880461749746,-106.885987450624,"<Point><coordinates>-107.737089,33.995166</coordinates></Point>"
,879,879,NM,33.2140325360989,-107.120631399288,"<Point><coordinates>-107.218616,33.168686</coordinates></Point>"
,880,880,NM,32.2945680466822,-106.755558993272,"<Point><coordinates>-107.92413,32.374271</coordinates></Point>"
,881,881,NM,34.4815301148282,-103.275911815778,"<Point><coordinates>-103.816424,34.23663</coordinates></Point>"
,882,882,NM,33.6509788113796,-104.409274126304,"<Point><coordinates>-104.068804,32.879775</coordinates></Point>"
,883,883,NM,33.8122867996614,-105.752290945757,"<Point><coordinates>-105.572706,33.432979</coordinates></Point>"
,884,884,NM,35.1045588796279,-103.813766904343,"<Point><coordinates>-103.805668,35.705922</coordinates></Point>"
,890,890,NV,37.2887230016738,-115.397567086451,"<Point><coordinates>-115.822389,37.564303</coordinates></Point>"
,891,891,NV,36.172600892164,-115.122986596468,"<Point><coordinates>-115.420943,36.312821</coordinates></Point>"
,893,893,NV,39.5381939285027,-114.775675659047,"<Point><coordinates>-115.68578,39.491613</coordinates></Point>"
,894,894,NV,39.1974129114096,-119.985675148805,"<Point><coordinates>-118.511547,40.324182</coordinates></Point>"
,895,895,NV,39.5258070706752,-119.813043199042,"<Point><coordinates>-119.70921,39.878761</coordinates></Point>"
,897,897,NV,39.1307744783956,-119.691621971799,"<Point><coordinates>-119.788472,39.178452</coordinates></Point>"
,898,898,NV,41.2536738908543,-115.760317740028,"<Point><coordinates>-115.57977,41.035987</coordinates></Point>"
,063,063,NY,41.2702873287793,-71.988596981669,"<Point><coordinates>-71.988538,41.270359</coordinates></Point>"
,100,100,NY,40.7505956027072,-73.9969904238369,"<Point><coordinates>-73.966889,40.781725</coordinates></Point>"
,101,101,NY,40.7633090468481,-73.9797878439146,"<Point><coordinates>-73.961731,40.779566</coordinates></Point>"
,102,102,NY,40.7051257506287,-74.0057051532414,"<Point><coordinates>-74.019097,40.7142</coordinates></Point>"
,103,103,NY,40.6268731143947,-74.0960472086495,"<Point><coordinates>-74.152969,40.58095</coordinates></Point>"
,104,104,NY,40.8203021446599,-73.9239356970308,"<Point><coordinates>-73.866785,40.849976</coordinates></Point>"
,105,105,NY,41.2922361699564,-73.7604420299132,"<Point><coordinates>-73.754245,41.268346</coordinates></Point>"
,106,106,NY,41.032704037141,-73.7650821954244,"<Point><coordinates>-73.75929,41.041341</coordinates></Point>"
,107,107,NY,40.9236183166504,-73.9017944335938,"<Point><coordinates>-73.8623,40.95166</coordinates></Point>"
,108,108,NY,40.9175137948106,-73.7842062466044,"<Point><coordinates>-73.788516,40.922999</coordinates></Point>"
,109,109,NY,41.1434616274125,-74.1238460876456,"<Point><coordinates>-74.232897,41.300193</coordinates></Point>"
,110,110,NY,40.7220752067917,-73.7068341419121,"<Point><coordinates>-73.703634,40.775859</coordinates></Point>"
,111,111,NY,40.7458765271783,-73.9401086213694,"<Point><coordinates>-73.921783,40.76341</coordinates></Point>"
,112,112,NY,40.6970240928097,-73.9890018436833,"<Point><coordinates>-73.948665,40.645982</coordinates></Point>"
,113,113,NY,40.7563418797691,-73.8274802402864,"<Point><coordinates>-73.833314,40.749792</coordinates></Point>"
,114,114,NY,40.7049329101236,-73.7938723442845,"<Point><coordinates>-73.786742,40.682642</coordinates></Point>"
,115,115,NY,40.7467145052922,-73.6395425596232,"<Point><coordinates>-73.622193,40.718257</coordinates></Point>"
,116,116,NY,40.6016290751701,-73.7616789652165,"<Point><coordinates>-73.821507,40.595293</coordinates></Point>"
,117,117,NY,40.6819634281226,-73.4125545304573,"<Point><coordinates>-73.239444,40.817188</coordinates></Point>"
,118,118,NY,40.7624934487889,-73.523807677474,"<Point><coordinates>-73.490401,40.768789</coordinates></Point>"
,119,119,NY,40.9336224397058,-72.6416370793506,"<Point><coordinates>-72.481996,40.951227</coordinates></Point>"
,120,120,NY,42.4547688129782,-73.9311520135809,"<Point><coordinates>-74.032892,42.769282</coordinates></Point>"
,121,121,NY,42.3872222222509,-73.7109816469755,"<Point><coordinates>-74.156889,42.931118</coordinates></Point>"
,122,122,NY,42.6472800295118,-73.7516930834563,"<Point><coordinates>-73.80428,42.69022</coordinates></Point>"
,123,123,NY,42.8153264910056,-73.9386311504688,"<Point><coordinates>-73.970374,42.824981</coordinates></Point>"
,124,124,NY,41.9373207092285,-74.0013847351074,"<Point><coordinates>-74.267151,42.096767</coordinates></Point>"
,125,125,NY,41.8598590951481,-73.5602758628509,"<Point><coordinates>-73.834386,41.805991</coordinates></Point>"
,126,126,NY,41.7020914022105,-73.9141768880545,"<Point><coordinates>-73.885071,41.687558</coordinates></Point>"
,127,127,NY,41.6463072038989,-74.7002969486921,"<Point><coordinates>-74.755405,41.746295</coordinates></Point>"
,128,128,NY,43.3108944460411,-73.6449816899646,"<Point><coordinates>-73.893822,43.613299</coordinates></Point>"
,129,129,NY,44.7145600086042,-73.454357549107,"<Point><coordinates>-74.01232,44.519365</coordinates></Point>"
,130,130,NY,42.8205889001901,-76.0739626162053,"<Point><coordinates>-76.185053,42.965205</coordinates></Point>"
,131,131,NY,42.5994546303793,-76.0640448226187,"<Point><coordinates>-76.348526,43.069743</coordinates></Point>"
,132,132,NY,43.0435782151902,-76.1507035299336,"<Point><coordinates>-76.185773,43.040613</coordinates></Point>"
,133,133,NY,43.4188104166623,-75.2172803980479,"<Point><coordinates>-75.169131,43.377464</coordinates></Point>"
,134,134,NY,42.90220622487,-75.5004184209062,"<Point><coordinates>-75.237616,43.210725</coordinates></Point>"
,135,135,NY,43.0811337841928,-75.2293652550205,"<Point><coordinates>-75.168466,43.134102</coordinates></Point>"
,136,136,NY,43.9616550307712,-75.9022369173221,"<Point><coordinates>-75.420756,44.331405</coordinates></Point>"
,137,137,NY,42.2343589257587,-75.5390075382465,"<Point><coordinates>-75.394516,42.221576</coordinates></Point>"
,138,138,NY,42.4998553103747,-75.7818252422216,"<Point><coordinates>-75.605471,42.336321</coordinates></Point>"
,139,139,NY,42.1835899702155,-75.8801479512153,"<Point><coordinates>-75.887927,42.125363</coordinates></Point>"
,140,140,NY,43.0298650951145,-78.512460200638,"<Point><coordinates>-78.600468,42.814114</coordinates></Point>"
,141,141,NY,42.3884945851826,-78.5413524481462,"<Point><coordinates>-78.676445,42.838136</coordinates></Point>"
,142,142,NY,42.8965886623808,-78.8865218406153,"<Point><coordinates>-78.792284,42.917204</coordinates></Point>"
,143,143,NY,43.0974504933696,-79.0343938001438,"<Point><coordinates>-78.981363,43.102181</coordinates></Point>"
,144,144,NY,43.196902717047,-77.8555774166891,"<Point><coordinates>-77.63124,42.958921</coordinates></Point>"
,145,145,NY,43.0974835325808,-77.3380411445769,"<Point><coordinates>-77.425009,42.887927</coordinates></Point>"
,146,146,NY,43.1591428523363,-77.6068194844908,"<Point><coordinates>-77.646679,43.169927</coordinates></Point>"
,147,147,NY,42.0819081426174,-79.2624144845441,"<Point><coordinates>-78.842908,42.204944</coordinates></Point>"
,148,148,NY,42.0954795563799,-77.285170272246,"<Point><coordinates>-77.200063,42.290914</coordinates></Point>"
,149,149,NY,42.0721013915211,-76.7370517446476,"<Point><coordinates>-76.793517,42.089483</coordinates></Point>"
,430,430,OH,40.0879778724422,-82.6129450831437,"<Point><coordinates>-82.908803,40.199985</coordinates></Point>"
,431,431,OH,39.4661388215042,-82.746940296961,"<Point><coordinates>-82.992146,39.675471</coordinates></Point>"
,432,432,OH,39.9911008335008,-83.0004900844753,"<Point><coordinates>-82.982253,39.989769</coordinates></Point>"
,433,433,OH,40.5969590166614,-83.1347174379076,"<Point><coordinates>-83.387962,40.550823</coordinates></Point>"
,434,434,OH,41.40457510687,-83.6546094338042,"<Point><coordinates>-83.292356,41.417355</coordinates></Point>"
,435,435,OH,41.6734721926839,-84.4617732242406,"<Point><coordinates>-84.216163,41.459054</coordinates></Point>"
,436,436,OH,41.6412522849483,-83.543754582875,"<Point><coordinates>-83.536733,41.660226</coordinates></Point>"
,437,437,OH,39.9588248562207,-81.995755861489,"<Point><coordinates>-81.666376,39.846426</coordinates></Point>"
,438,438,OH,40.0958740479781,-81.8578351081133,"<Point><coordinates>-81.885459,40.260662</coordinates></Point>"
,439,439,OH,40.225293201466,-80.8614501135194,"<Point><coordinates>-80.899921,40.248255</coordinates></Point>"
,440,440,OH,41.3675901869078,-82.2603227754922,"<Point><coordinates>-81.28328,41.549794</coordinates></Point>"
,441,441,OH,41.4906463298287,-81.6733140186054,"<Point><coordinates>-81.667984,41.421943</coordinates></Point>"
,442,442,OH,41.0263065286404,-81.1765057135572,"<Point><coordinates>-81.593834,41.122614</coordinates></Point>"
,443,443,OH,41.0437952460055,-81.5241201001472,"<Point><coordinates>-81.551035,41.075072</coordinates></Point>"
,444,444,OH,41.024363806309,-80.9432640582728,"<Point><coordinates>-80.774316,41.093836</coordinates></Point>"
,445,445,OH,41.0977480850318,-80.6466798304567,"<Point><coordinates>-80.666238,41.067183</coordinates></Point>"
,446,446,OH,40.919787593063,-81.1283375257408,"<Point><coordinates>-81.528603,40.650856</coordinates></Point>"
,447,447,OH,40.7998528049278,-81.3759360419239,"<Point><coordinates>-81.363426,40.820708</coordinates></Point>"
,448,448,OH,41.040965090951,-83.4238315132801,"<Point><coordinates>-82.751012,41.015379</coordinates></Point>"
,449,449,OH,40.7635604633973,-82.513538979506,"<Point><coordinates>-82.551945,40.744202</coordinates></Point>"
,450,450,OH,39.138977425559,-84.7149300832776,"<Point><coordinates>-84.467675,39.429926</coordinates></Point>"
,451,451,OH,38.6905463613006,-83.741134148568,"<Point><coordinates>-83.830919,39.150835</coordinates></Point>"
,452,452,OH,39.1018453227245,-84.5139980451451,"<Point><coordinates>-84.475381,39.180828</coordinates></Point>"
,453,453,OH,39.7108140214984,-84.0232183715798,"<Point><coordinates>-84.30018,39.970491</coordinates></Point>"
,454,454,OH,39.7584908599373,-84.1789834552871,"<Point><coordinates>-84.180594,39.750318</coordinates></Point>"
,455,455,OH,39.9263595146679,-83.8078691392043,"<Point><coordinates>-83.815489,39.929072</coordinates></Point>"
,456,456,OH,39.3093012655332,-82.9612127848489,"<Point><coordinates>-82.853568,38.970313</coordinates></Point>"
,457,457,OH,39.31305703548,-82.0869062049495,"<Point><coordinates>-81.787609,39.354843</coordinates></Point>"
,458,458,OH,40.776871079238,-84.0389546749615,"<Point><coordinates>-84.230177,40.826627</coordinates></Point>"
,730,730,OK,34.9570106806538,-97.7299582912313,"<Point><coordinates>-97.826683,35.302818</coordinates></Point>"
,731,731,OK,35.4735618567479,-97.518554366179,"<Point><coordinates>-97.501136,35.444732</coordinates></Point>"
,734,734,OK,34.1943691130758,-97.1114470773398,"<Point><coordinates>-97.13065,34.199525</coordinates></Point>"
,735,735,OK,34.5532826454349,-98.2459331588309,"<Point><coordinates>-98.819328,34.532209</coordinates></Point>"
,736,736,OK,35.4807261394597,-98.9849509475254,"<Point><coordinates>-99.345314,35.533861</coordinates></Point>"
,737,737,OK,36.4286244365567,-97.7854219650884,"<Point><coordinates>-98.227277,36.435728</coordinates></Point>"
,738,738,OK,36.4728126891964,-99.4332420453798,"<Point><coordinates>-99.526071,36.520005</coordinates></Point>"
,739,739,OK,36.750636986336,-101.067286557411,"<Point><coordinates>-101.65911,36.74748</coordinates></Point>"
,740,740,OK,36.4889192731186,-96.061792246213,"<Point><coordinates>-96.213008,36.323503</coordinates></Point>"
,741,741,OK,36.1512751053818,-95.995577261799,"<Point><coordinates>-95.947767,36.13917</coordinates></Point>"
,743,743,OK,36.6952229692321,-95.2544763403707,"<Point><coordinates>-95.03327,36.556434</coordinates></Point>"
,744,744,OK,35.7297931233264,-95.4583909275913,"<Point><coordinates>-95.436302,35.635763</coordinates></Point>"
,745,745,OK,34.941965422359,-95.7669588454456,"<Point><coordinates>-95.653206,34.651154</coordinates></Point>"
,746,746,OK,36.7079078779214,-97.1465941358772,"<Point><coordinates>-97.072251,36.707751</coordinates></Point>"
,747,747,OK,34.0105227474072,-96.3793285156728,"<Point><coordinates>-95.370348,34.040683</coordinates></Point>"
,748,748,OK,35.3171684500478,-96.9614220513915,"<Point><coordinates>-96.661309,35.166693</coordinates></Point>"
,749,749,OK,35.3533626448554,-94.4528953552078,"<Point><coordinates>-94.700432,35.170405</coordinates></Point>"
,970,970,OR,44.9433357833233,-120.690157952289,"<Point><coordinates>-121.777205,45.376668</coordinates></Point>"
,971,971,OR,45.0977869156573,-123.20540604863,"<Point><coordinates>-123.506214,45.593671</coordinates></Point>"
,972,972,OR,45.5081143308709,-122.691129056779,"<Point><coordinates>-122.706629,45.557534</coordinates></Point>"
,973,973,OR,44.9502241090971,-123.004725508069,"<Point><coordinates>-123.05963,44.687435</coordinates></Point>"
,974,974,OR,44.0683673239102,-123.082145903243,"<Point><coordinates>-123.274577,43.425366</coordinates></Point>"
,975,975,OR,42.2808388410446,-122.890021311479,"<Point><coordinates>-123.0049,42.396021</coordinates></Point>"
,976,976,OR,42.4123512253926,-122.074097312177,"<Point><coordinates>-120.971016,42.559401</coordinates></Point>"
,977,977,OR,44.0514183044434,-121.359977722168,"<Point><coordinates>-120.139175,43.47954</coordinates></Point>"
,978,978,OR,45.6746653066474,-118.807493880545,"<Point><coordinates>-118.568582,45.137823</coordinates></Point>"
,979,979,OR,43.6107491875667,-117.1059129697,"<Point><coordinates>-117.619357,43.34363</coordinates></Point>"
,150,150,PA,40.5931045064299,-80.3210143620504,"<Point><coordinates>-80.152685,40.497862</coordinates></Point>"
,151,151,PA,40.5804379499168,-79.9554146477495,"<Point><coordinates>-80.024291,40.460162</coordinates></Point>"
,152,152,PA,40.473674,-79.955872,"<Point><coordinates>-79.961526,40.457938</coordinates></Point>"
,153,153,PA,40.163500799609,-80.2543740608495,"<Point><coordinates>-80.241423,40.008034</coordinates></Point>"
,154,154,PA,39.8991597665818,-79.7476935555684,"<Point><coordinates>-79.645873,39.915903</coordinates></Point>"
,155,155,PA,40.0393031279178,-79.1402692101533,"<Point><coordinates>-78.786524,39.947151</coordinates></Point>"
,156,156,PA,40.3162370614182,-79.5350161954073,"<Point><coordinates>-79.469248,40.333036</coordinates></Point>"
,157,157,PA,40.6301027579924,-79.1539168773394,"<Point><coordinates>-79.01843,40.717357</coordinates></Point>"
,158,158,PA,41.1279561608133,-78.7207778097016,"<Point><coordinates>-78.643541,41.320914</coordinates></Point>"
,159,159,PA,40.3278437185358,-78.9138177538114,"<Point><coordinates>-78.841928,40.342395</coordinates></Point>"
,160,160,PA,40.91166226485,-79.9434799687305,"<Point><coordinates>-79.898827,40.927752</coordinates></Point>"
,161,161,PA,40.9879512046988,-80.287802825359,"<Point><coordinates>-80.304511,41.191822</coordinates></Point>"
,162,162,PA,40.807750344841,-79.4640516502399,"<Point><coordinates>-79.363203,41.075049</coordinates></Point>"
,163,163,PA,41.4542864255809,-79.6519755218344,"<Point><coordinates>-79.574823,41.588989</coordinates></Point>"
,164,164,PA,41.8830503557024,-80.407253133148,"<Point><coordinates>-79.995331,41.872672</coordinates></Point>"
,165,165,PA,42.1177593663611,-80.0957427226773,"<Point><coordinates>-80.046942,42.096403</coordinates></Point>"
,166,166,PA,40.5547381294023,-78.3683922585511,"<Point><coordinates>-78.28043,40.495341</coordinates></Point>"
,167,167,PA,41.9155822805972,-78.7645409476921,"<Point><coordinates>-78.457855,41.760097</coordinates></Point>"
,168,168,PA,40.7768982834593,-77.8296911809871,"<Point><coordinates>-77.9917,40.972516</coordinates></Point>"
,169,169,PA,41.7258778051753,-77.3163890538103,"<Point><coordinates>-77.371426,41.79212</coordinates></Point>"
,170,170,PA,40.5266561258918,-77.8269602130124,"<Point><coordinates>-77.128313,40.422512</coordinates></Point>"
,171,171,PA,40.2595772715771,-76.8875671218581,"<Point><coordinates>-76.810046,40.32234</coordinates></Point>"
,172,172,PA,39.9726130811954,-77.6665594635272,"<Point><coordinates>-77.790277,39.992493</coordinates></Point>"
,173,173,PA,39.892552350733,-76.9867357563767,"<Point><coordinates>-76.92045,39.886311</coordinates></Point>"
,174,174,PA,39.9589519819136,-76.7338584141311,"<Point><coordinates>-76.704514,39.973061</coordinates></Point>"
,175,175,PA,40.1567631818116,-76.2045168810913,"<Point><coordinates>-76.22874,40.044264</coordinates></Point>"
,176,176,PA,40.0730558106315,-76.3141886839793,"<Point><coordinates>-76.305061,40.035618</coordinates></Point>"
,177,177,PA,41.3450859998913,-76.894835936402,"<Point><coordinates>-77.223075,41.332833</coordinates></Point>"
,178,178,PA,40.8338305916911,-76.7573118004277,"<Point><coordinates>-76.765217,40.931249</coordinates></Point>"
,179,179,PA,40.6938949493236,-76.254768026081,"<Point><coordinates>-76.272517,40.688516</coordinates></Point>"
,180,180,PA,40.4692977017575,-75.6482993536905,"<Point><coordinates>-75.455185,40.685837</coordinates></Point>"
,181,181,PA,40.6032267522707,-75.4696989223711,"<Point><coordinates>-75.515702,40.597196</coordinates></Point>"
,182,182,PA,40.9511627417601,-75.9554605949964,"<Point><coordinates>-75.862531,40.897841</coordinates></Point>"
,183,183,PA,41.031762041498,-75.1817121338917,"<Point><coordinates>-75.172811,41.122286</coordinates></Point>"
,184,184,PA,41.491912318936,-75.5236863575751,"<Point><coordinates>-75.379567,41.53607</coordinates></Point>"
,185,185,PA,41.4087748867667,-75.6634200191727,"<Point><coordinates>-75.657772,41.406355</coordinates></Point>"
,186,186,PA,41.1823690190279,-75.7524397228504,"<Point><coordinates>-76.133075,41.376264</coordinates></Point>"
,187,187,PA,41.2433794220387,-75.885391254118,"<Point><coordinates>-75.854753,41.202946</coordinates></Point>"
,188,188,PA,41.8319052516958,-75.9263759018172,"<Point><coordinates>-76.11551,41.830503</coordinates></Point>"
,189,189,PA,40.3063358066325,-75.1505228007018,"<Point><coordinates>-75.15954,40.366193</coordinates></Point>"
,190,190,PA,40.1269047717822,-75.1256831129385,"<Point><coordinates>-75.168112,40.056955</coordinates></Point>"
,191,191,PA,39.9526139495128,-75.183696779919,"<Point><coordinates>-75.13885,40.002626</coordinates></Point>"
,192,192,PA,40.1004600268445,-75.0084793903661,"<Point><coordinates>-75.008479,40.10046</coordinates></Point>"
,193,193,PA,40.0409889807051,-75.4821668907568,"<Point><coordinates>-75.765684,39.926323</coordinates></Point>"
,194,194,PA,40.1300633912866,-75.3315801129381,"<Point><coordinates>-75.46731,40.186199</coordinates></Point>"
,195,195,PA,40.2444250437604,-76.0612671077821,"<Point><coordinates>-75.902121,40.414707</coordinates></Point>"
,196,196,PA,40.3531759321287,-75.9404565195716,"<Point><coordinates>-75.946943,40.337955</coordinates></Point>"
,006,006,PR,18.1712949030717,-66.7398582036752,"<Point><coordinates>-66.851619,18.257591</coordinates></Point>"
,007,007,PR,18.260061689022,-66.1189097142711,"<Point><coordinates>-66.099288,18.155447</coordinates></Point>"
,009,009,PR,18.4288673400879,-66.0505790710449,"<Point><coordinates>-66.094191,18.374486</coordinates></Point>"
,028,028,RI,41.9531504079649,-71.4575637476118,"<Point><coordinates>-71.546925,41.652316</coordinates></Point>"
,029,029,RI,41.8258558538419,-71.4134288124013,"<Point><coordinates>-71.46712,41.824837</coordinates></Point>"
,290,290,SC,33.7797118802599,-80.1769449937896,"<Point><coordinates>-80.813446,34.000455</coordinates></Point>"
,291,291,SC,34.4537590388318,-80.2455367265726,"<Point><coordinates>-80.91042,33.925429</coordinates></Point>"
,292,292,SC,33.984220608572,-81.0282213231384,"<Point><coordinates>-81.002314,34.047907</coordinates></Point>"
,293,293,SC,34.9346700514369,-82.0141611817278,"<Point><coordinates>-81.865623,34.784033</coordinates></Point>"
,294,294,SC,32.7773272211035,-79.9324208606563,"<Point><coordinates>-80.078021,33.053437</coordinates></Point>"
,295,295,SC,34.2065600147827,-79.8247805992297,"<Point><coordinates>-79.50048,34.065302</coordinates></Point>"
,296,296,SC,34.8479685384877,-82.4030864528662,"<Point><coordinates>-82.570604,34.612258</coordinates></Point>"
,297,297,SC,35.1159994621681,-81.4746686898177,"<Point><coordinates>-80.935004,34.835408</coordinates></Point>"
,298,298,SC,33.5863995905268,-81.6977579659937,"<Point><coordinates>-81.741775,33.506192</coordinates></Point>"
,299,299,SC,32.4340145465779,-80.6723167601571,"<Point><coordinates>-80.948082,32.537714</coordinates></Point>"
,571,571,SD,43.544723650064,-96.723029784737,"<Point><coordinates>-96.752259,43.547201</coordinates></Point>"
,572,572,SD,44.9341629312962,-97.0944474554138,"<Point><coordinates>-97.172699,45.034138</coordinates></Point>"
,574,574,SD,45.4793519111614,-98.5390166430168,"<Point><coordinates>-98.926341,45.358725</coordinates></Point>"
,575,575,SD,44.5426846377805,-100.327015533699,"<Point><coordinates>-100.610931,43.885793</coordinates></Point>"
,576,576,SD,45.4550895255833,-100.499845061034,"<Point><coordinates>-101.597646,45.432608</coordinates></Point>"
,577,577,SD,44.133425820954,-103.208525482569,"<Point><coordinates>-103.106911,44.247735</coordinates></Point>"
,573,573,SD,43.7085759749902,-98.0403364886876,"<Point><coordinates>-98.521527,43.908354</coordinates></Point>"
,570,570,SD,42.9941027027452,-96.6536968335773,"<Point><coordinates>-97.067248,43.478557</coordinates></Point>"
,370,370,TN,36.5979375796309,-88.0425796177995,"<Point><coordinates>-86.99625,36.103265</coordinates></Point>"
,371,371,TN,36.12,-87.64,"<Point><coordinates>-86.653368,36.007847</coordinates></Point>"
,372,372,TN,36.17,-86.78,"<Point><coordinates>-86.825471,36.135779</coordinates></Point>"
,373,373,TN,35.43,-85.76,"<Point><coordinates>-85.344953,35.319046</coordinates></Point>"
,374,374,TN,35.05,-85.31,"<Point><coordinates>-85.311141,35.067369</coordinates></Point>"
,375,375,TN,35.03,-89.93,"<Point><coordinates>-89.937294,35.002932</coordinates></Point>"
,376,376,TN,36.33,-82.34,"<Point><coordinates>-82.293821,36.358693</coordinates></Point>"
,377,377,TN,35.79,-83.98,"<Point><coordinates>-83.82432,36.092857</coordinates></Point>"
,378,378,TN,35.78,-83.91,"<Point><coordinates>-83.840574,36.099147</coordinates></Point>"
,379,379,TN,35.96,-83.92,"<Point><coordinates>-83.972451,35.965006</coordinates></Point>"
,380,380,TN,35.8,-89.18,"<Point><coordinates>-89.422845,35.551439</coordinates></Point>"
,381,381,TN,35.15,-90.05,"<Point><coordinates>-89.971108,35.113668</coordinates></Point>"
,382,382,TN,36.13,-88.51,"<Point><coordinates>-88.675765,36.298405</coordinates></Point>"
,383,383,TN,35.61,-88.81,"<Point><coordinates>-88.503162,35.606454</coordinates></Point>"
,384,384,TN,35.62,-87.04,"<Point><coordinates>-87.355097,35.336069</coordinates></Point>"
,385,385,TN,36.17,-85.5,"<Point><coordinates>-85.334348,36.180342</coordinates></Point>"
,750,750,TX,32.9602558381961,-96.8380888773413,"<Point><coordinates>-96.727534,33.227931</coordinates></Point>"
,751,751,TX,32.2663046756115,-96.6933582090681,"<Point><coordinates>-96.31512,32.467867</coordinates></Point>"
,752,752,TX,32.7870804543033,-96.7988016186729,"<Point><coordinates>-96.793532,32.786853</coordinates></Point>"
,753,753,TX,32.7838014074936,-96.7982596855517,"<Point><coordinates>-96.82083,32.826581</coordinates></Point>"
,754,754,TX,33.19146401064,-96.1162485404333,"<Point><coordinates>-95.685845,33.365734</coordinates></Point>"
,755,755,TX,33.4258033353657,-94.2615891636634,"<Point><coordinates>-94.455866,33.312818</coordinates></Point>"
,756,756,TX,32.5087993063972,-94.7239464242262,"<Point><coordinates>-94.576916,32.498073</coordinates></Point>"
,757,757,TX,32.3164135,-95.2997725,"<Point><coordinates>-95.360522,32.238938</coordinates></Point>"
,758,758,TX,31.7271075389236,-95.5427019873783,"<Point><coordinates>-95.674089,31.44409</coordinates></Point>"
,759,759,TX,31.3148329060941,-94.6579924265857,"<Point><coordinates>-94.296728,31.279699</coordinates></Point>"
,760,760,TX,32.6304341421875,-97.1527919624476,"<Point><coordinates>-97.546374,32.595964</coordinates></Point>"
,761,761,TX,32.745762503794,-97.3281747471537,"<Point><coordinates>-97.377083,32.770099</coordinates></Point>"
,762,762,TX,33.2208626211299,-97.1472755476014,"<Point><coordinates>-97.435261,33.516877</coordinates></Point>"
,763,763,TX,33.8341102600098,-99.3223419189453,"<Point><coordinates>-98.885827,33.730566</coordinates></Point>"
,764,764,TX,32.742283,-99.416068,"<Point><coordinates>-98.605047,32.600482</coordinates></Point>"
,765,765,TX,31.2501576576713,-97.754350156956,"<Point><coordinates>-97.631426,31.127857</coordinates></Point>"
,766,766,TX,31.8748023624778,-97.0918015499826,"<Point><coordinates>-97.043621,31.710491</coordinates></Point>"
,767,767,TX,31.5516681729589,-97.138636600571,"<Point><coordinates>-97.144967,31.566329</coordinates></Point>"
,768,768,TX,31.1553773880005,-100.129737854004,"<Point><coordinates>-99.375223,31.222341</coordinates></Point>"
,769,769,TX,31.315990447998,-101.633392333984,"<Point><coordinates>-100.904307,31.048229</coordinates></Point>"
,770,770,TX,29.7568662170522,-95.3653330159957,"<Point><coordinates>-95.40377,29.79358</coordinates></Point>"
,772,772,TX,29.7260847091675,-95.337776184082,"<Point><coordinates>-95.422843,29.778287</coordinates></Point>"
,773,773,TX,30.3091612387912,-95.4339930938021,"<Point><coordinates>-95.246646,30.481062</coordinates></Point>"
,774,774,TX,28.6628971099854,-95.8502731323242,"<Point><coordinates>-96.028017,29.370016</coordinates></Point>"
,775,775,TX,29.2155226321111,-95.0881562405283,"<Point><coordinates>-94.982974,29.649067</coordinates></Point>"
,776,776,TX,29.5645732879639,-94.4362411499023,"<Point><coordinates>-94.154296,30.215009</coordinates></Point>"
,777,777,TX,29.7231312489284,-94.1961931917251,"<Point><coordinates>-94.205458,29.929607</coordinates></Point>"
,778,778,TX,30.6398369729132,-96.3639283336342,"<Point><coordinates>-96.324639,30.680622</coordinates></Point>"
,779,779,TX,28.2409202498322,-96.6335146729594,"<Point><coordinates>-96.95695,28.900508</coordinates></Point>"
,780,780,TX,28.1768894195557,-99.328987121582,"<Point><coordinates>-99.018736,28.615034</coordinates></Point>"
,781,781,TX,29.3440606835091,-98.2367957505234,"<Point><coordinates>-97.932622,29.094236</coordinates></Point>"
,782,782,TX,29.6916303816545,-98.5659600526055,"<Point><coordinates>-98.529736,29.459699</coordinates></Point>"
,783,783,TX,27.1637134546991,-97.9891372105953,"<Point><coordinates>-98.078531,27.506466</coordinates></Point>"
,784,784,TX,27.5745344668493,-97.3681011316867,"<Point><coordinates>-97.425916,27.679242</coordinates></Point>"
,785,785,TX,26.4112423589744,-97.439648147929,"<Point><coordinates>-98.096009,26.390601</coordinates></Point>"
,786,786,TX,30.1170407791392,-97.3301794556373,"<Point><coordinates>-98.146962,30.27967</coordinates></Point>"
,787,787,TX,30.2706053511004,-97.7433982939145,"<Point><coordinates>-97.798586,30.289223</coordinates></Point>"
,788,788,TX,29.3162255,-100.80552,"<Point><coordinates>-100.300353,29.403106</coordinates></Point>"
,789,789,TX,30.0363323997205,-96.4413879531907,"<Point><coordinates>-96.874646,29.919908</coordinates></Point>"
,790,790,TX,35.3925413333333,-103.006573666667,"<Point><coordinates>-101.638748,35.4805</coordinates></Point>"
,791,791,TX,35.427315,-101.8246295,"<Point><coordinates>-101.862375,35.276227</coordinates></Point>"
,792,792,TX,34.0680259164857,-100.515091633151,"<Point><coordinates>-100.549712,34.230106</coordinates></Point>"
,793,793,TX,32.9237251281738,-102.847694396973,"<Point><coordinates>-102.180144,33.359416</coordinates></Point>"
,794,794,TX,33.5882849854089,-101.852076210283,"<Point><coordinates>-101.896657,33.591326</coordinates></Point>"
,795,795,TX,33.3138694763184,-100.015949249268,"<Point><coordinates>-100.320041,32.703295</coordinates></Point>"
,796,796,TX,32.6339023262616,-99.5138421489249,"<Point><coordinates>-99.712504,32.472683</coordinates></Point>"
,797,797,TX,31.3371811016476,-102.929453554353,"<Point><coordinates>-102.712942,31.438661</coordinates></Point>"
,798,798,TX,31.4643659591675,-106.05419921875,"<Point><coordinates>-104.200013,30.672847</coordinates></Point>"
,799,799,TX,31.7703456878662,-105.620868682861,"<Point><coordinates>-105.974743,31.782692</coordinates></Point>"
,840,840,UT,39.580582,-110.02254,"<Point><coordinates>-111.591391,40.508361</coordinates></Point>"
,841,841,UT,40.8540074416374,-112.143317029084,"<Point><coordinates>-111.849923,40.727404</coordinates></Point>"
,842,842,UT,41.2492785069656,-112.000282489094,"<Point><coordinates>-112.000282,41.249279</coordinates></Point>"
,843,843,UT,41.3800811767578,-112.251426696777,"<Point><coordinates>-112.658724,41.573787</coordinates></Point>"
,844,844,UT,41.1415695,-112.346535,"<Point><coordinates>-112.146252,41.242543</coordinates></Point>"
,845,845,UT,39.3462066650391,-110.035140991211,"<Point><coordinates>-110.063559,38.471527</coordinates></Point>"
,846,846,UT,39.3701705932617,-111.977394104004,"<Point><coordinates>-112.114606,39.494833</coordinates></Point>"
,847,847,UT,38.5023574829102,-111.565437316895,"<Point><coordinates>-112.454278,38.069059</coordinates></Point>"
,860,860,UT,37.0504237161351,-111.223519061622,"<Point><coordinates>-111.223519,37.050424</coordinates></Point>"
,201,201,VA,38.9631006185791,-77.6083699466735,"<Point><coordinates>-77.672218,38.896455</coordinates></Point>"
,220,220,VA,38.830674055139,-77.2134826436305,"<Point><coordinates>-77.264681,38.789933</coordinates></Point>"
,221,221,VA,38.9381480373809,-77.1641323357583,"<Point><coordinates>-77.286549,38.74315</coordinates></Point>"
,222,222,VA,38.8864730869865,-77.095282559385,"<Point><coordinates>-77.100874,38.878386</coordinates></Point>"
,223,223,VA,38.8199755074821,-77.059308330927,"<Point><coordinates>-77.101811,38.776166</coordinates></Point>"
,224,224,VA,38.2964852824198,-77.4825984893031,"<Point><coordinates>-77.010863,38.095735</coordinates></Point>"
,225,225,VA,37.7528281164671,-76.5133422733761,"<Point><coordinates>-77.199802,38.061072</coordinates></Point>"
,226,226,VA,39.1740632338543,-78.1746098834108,"<Point><coordinates>-78.244839,39.032435</coordinates></Point>"
,227,227,VA,38.4381132558566,-77.9980224567107,"<Point><coordinates>-78.060183,38.495234</coordinates></Point>"
,228,228,VA,38.4036477843555,-78.8757027983826,"<Point><coordinates>-78.781253,38.573463</coordinates></Point>"
,229,229,VA,38.088397042988,-78.555480911151,"<Point><coordinates>-78.569397,38.021751</coordinates></Point>"
,230,230,VA,37.3507955981197,-77.9612614629298,"<Point><coordinates>-77.492559,37.624642</coordinates></Point>"
,231,231,VA,37.7104569783371,-77.8364615182062,"<Point><coordinates>-77.304003,37.592107</coordinates></Point>"
,232,232,VA,37.5392326292499,-77.4374487131616,"<Point><coordinates>-77.452533,37.508715</coordinates></Point>"
,233,233,VA,37.2548440359096,-75.7987198574783,"<Point><coordinates>-76.030919,37.17907</coordinates></Point>"
,234,234,VA,37.3818626403809,-75.7334594726563,"<Point><coordinates>-76.230003,37.060282</coordinates></Point>"
,235,235,VA,36.8517460063432,-76.2800020807876,"<Point><coordinates>-76.262257,36.896879</coordinates></Point>"
,236,236,VA,37.0458849267273,-76.4679680206234,"<Point><coordinates>-76.459473,37.109644</coordinates></Point>"
,237,237,VA,36.811807507029,-76.3706491398815,"<Point><coordinates>-76.356125,36.859941</coordinates></Point>"
,238,238,VA,37.2378270001316,-77.3361824196274,"<Point><coordinates>-77.399129,36.949386</coordinates></Point>"
,239,239,VA,37.3162023366625,-78.4192216641985,"<Point><coordinates>-78.387102,37.033325</coordinates></Point>"
,240,240,VA,37.2706334855373,-79.9411734251418,"<Point><coordinates>-80.095311,37.144217</coordinates></Point>"
,241,241,VA,37.1776874595886,-79.8012013665201,"<Point><coordinates>-80.114837,37.082235</coordinates></Point>"
,242,242,VA,36.6105536283616,-82.169386334163,"<Point><coordinates>-82.488479,36.839328</coordinates></Point>"
,243,243,VA,37.0629350128409,-80.7944718470008,"<Point><coordinates>-81.132942,36.85314</coordinates></Point>"
,244,244,VA,38.1313100222885,-79.0886474489815,"<Point><coordinates>-79.521978,38.044975</coordinates></Point>"
,245,245,VA,37.3582193349599,-79.1458222743395,"<Point><coordinates>-79.109891,37.144553</coordinates></Point>"
,246,246,VA,37.1948801635048,-81.649038073769,"<Point><coordinates>-81.799061,37.185093</coordinates></Point>"
,050,050,VT,43.6747130026572,-72.3860024850608,"<Point><coordinates>-72.423951,43.869716</coordinates></Point>"
,051,051,VT,43.1803170078988,-72.4961172508692,"<Point><coordinates>-72.648486,43.290829</coordinates></Point>"
,052,052,VT,42.8787745329833,-73.1349311297303,"<Point><coordinates>-73.128322,43.032047</coordinates></Point>"
,053,053,VT,42.8442206078497,-72.6619884813775,"<Point><coordinates>-72.769737,42.945409</coordinates></Point>"
,054,054,VT,44.4737663776314,-73.2228904778506,"<Point><coordinates>-73.041408,44.590818</coordinates></Point>"
,056,056,VT,44.283348904403,-72.605617219455,"<Point><coordinates>-72.602593,44.356012</coordinates></Point>"
,057,057,VT,43.6333772575043,-72.9169784379936,"<Point><coordinates>-73.05069,43.695541</coordinates></Point>"
,058,058,VT,44.4086444117035,-71.987818926482,"<Point><coordinates>-72.109775,44.68833</coordinates></Point>"
,059,059,VT,45.0088050849423,-71.489101510276,"<Point><coordinates>-71.679039,44.775606</coordinates></Point>"
,980,980,WA,47.3099983847838,-122.264211259347,"<Point><coordinates>-121.798163,47.42327</coordinates></Point>"
,981,981,WA,47.6105956670649,-122.33636250647,"<Point><coordinates>-122.362866,47.599209</coordinates></Point>"
,982,982,WA,48.904833,-121.836232,"<Point><coordinates>-121.815963,48.420671</coordinates></Point>"
,983,983,WA,47.7092709519817,-123.455081291559,"<Point><coordinates>-122.985835,47.448193</coordinates></Point>"
,984,984,WA,47.2529821159187,-122.437397782829,"<Point><coordinates>-122.49426,47.16416</coordinates></Point>"
,985,985,WA,47.4498748779297,-124.341789245605,"<Point><coordinates>-123.324089,46.957966</coordinates></Point>"
,986,986,WA,46.0725598435323,-121.996206946111,"<Point><coordinates>-122.117667,46.023146</coordinates></Point>"
,988,988,WA,48.3803482055664,-120.950645446777,"<Point><coordinates>-119.973824,48.056114</coordinates></Point>"
,989,989,WA,47.1247634887695,-121.206008911133,"<Point><coordinates>-120.655157,46.678168</coordinates></Point>"
,990,990,WA,47.638239940117,-117.581533053054,"<Point><coordinates>-117.598082,47.585431</coordinates></Point>"
,991,991,WA,48.3308843181592,-117.925028116374,"<Point><coordinates>-118.117605,47.894993</coordinates></Point>"
,992,992,WA,47.6624651367924,-117.436576683857,"<Point><coordinates>-117.409002,47.680691</coordinates></Point>"
,993,993,WA,46.4183233749892,-118.907783805683,"<Point><coordinates>-118.872777,46.382533</coordinates></Point>"
,994,994,WA,46.0988202572679,-117.172251878594,"<Point><coordinates>-117.206292,46.198096</coordinates></Point>"
,530,530,WI,43.6056758996906,-88.060870444547,"<Point><coordinates>-88.24138,43.514512</coordinates></Point>"
,531,531,WI,42.5410721036435,-88.2308105083212,"<Point><coordinates>-88.32252,42.755115</coordinates></Point>"
,532,532,WI,43.0340346721858,-87.9208573447966,"<Point><coordinates>-87.968688,43.063991</coordinates></Point>"
,534,534,WI,42.7264639248935,-87.7820888669446,"<Point><coordinates>-87.829669,42.750086</coordinates></Point>"
,535,535,WI,42.6047088150136,-89.0673187421967,"<Point><coordinates>-89.681979,42.945136</coordinates></Point>"
,537,537,WI,43.0732715812595,-89.3811755353408,"<Point><coordinates>-89.38074,43.073745</coordinates></Point>"
,538,538,WI,42.9254494888142,-91.067721466363,"<Point><coordinates>-90.740603,42.876154</coordinates></Point>"
,539,539,WI,43.5547438949766,-89.4869531224469,"<Point><coordinates>-89.543394,43.633526</coordinates></Point>"
,540,540,WI,45.3346687471125,-92.3839352678189,"<Point><coordinates>-92.471154,45.084753</coordinates></Point>"
,541,541,WI,45.0379306914713,-88.7201060271307,"<Point><coordinates>-88.247203,45.07477</coordinates></Point>"
,542,542,WI,44.6202082835328,-87.4919159042713,"<Point><coordinates>-87.574028,44.553226</coordinates></Point>"
,543,543,WI,44.4819042926233,-88.0206951679634,"<Point><coordinates>-88.002999,44.525532</coordinates></Point>"
,544,544,WI,44.9619182656467,-89.7078692519524,"<Point><coordinates>-89.837991,44.929739</coordinates></Point>"
,545,545,WI,45.6570297166821,-89.3567755002173,"<Point><coordinates>-89.833115,45.882963</coordinates></Point>"
,546,546,WI,43.8003818723552,-91.1495144074475,"<Point><coordinates>-90.879723,43.930728</coordinates></Point>"
,547,547,WI,44.742143906175,-91.5020736540754,"<Point><coordinates>-91.520853,44.855914</coordinates></Point>"
,548,548,WI,45.8684451299887,-91.9280589541224,"<Point><coordinates>-91.609237,46.062298</coordinates></Point>"
,549,549,WI,44.046435353176,-88.479356222367,"<Point><coordinates>-88.934037,44.184805</coordinates></Point>"
,247,247,WV,37.301097505709,-81.219490448085,"<Point><coordinates>-81.164844,37.395976</coordinates></Point>"
,248,248,WV,37.4269806339405,-81.5617318883441,"<Point><coordinates>-81.658559,37.48491</coordinates></Point>"
,249,249,WV,37.823711842447,-80.4514925669188,"<Point><coordinates>-80.300744,37.972405</coordinates></Point>"
,250,250,WV,38.251464922047,-81.771408820272,"<Point><coordinates>-81.42338,38.301034</coordinates></Point>"
,251,251,WV,38.1888045004311,-81.3621508467652,"<Point><coordinates>-81.599601,38.307409</coordinates></Point>"
,252,252,WV,38.3180111115549,-81.8557992355087,"<Point><coordinates>-81.482877,38.680232</coordinates></Point>"
,253,253,WV,38.3510365905497,-81.6282391249495,"<Point><coordinates>-81.636847,38.405954</coordinates></Point>"
,254,254,WV,39.4568580833694,-77.9720334526476,"<Point><coordinates>-78.107372,39.45062</coordinates></Point>"
,255,255,WV,38.1558265292314,-81.9586707365536,"<Point><coordinates>-82.181419,38.26426</coordinates></Point>"
,256,256,WV,37.8423772160442,-82.0051480210675,"<Point><coordinates>-82.087691,37.764604</coordinates></Point>"
,257,257,WV,38.3694340445984,-82.4089703824916,"<Point><coordinates>-82.427303,38.376324</coordinates></Point>"
,258,258,WV,37.8161262043221,-81.2486718028685,"<Point><coordinates>-81.161848,37.821791</coordinates></Point>"
,259,259,WV,37.9505175253754,-81.1130582276579,"<Point><coordinates>-80.939811,37.801901</coordinates></Point>"
,260,260,WV,40.0699778498526,-80.650842414691,"<Point><coordinates>-80.62789,40.061882</coordinates></Point>"
,261,261,WV,39.2389668738894,-81.5758851948238,"<Point><coordinates>-81.24572,39.223736</coordinates></Point>"
,262,262,WV,38.2507203771793,-80.366453854971,"<Point><coordinates>-80.014031,38.768487</coordinates></Point>"
,263,263,WV,39.2809995,-80.3123345,"<Point><coordinates>-80.584887,39.177048</coordinates></Point>"
,264,264,WV,39.3562725613219,-80.3085008724215,"<Point><coordinates>-80.406009,39.20807</coordinates></Point>"
,265,265,WV,39.6225006520021,-80.0323160557237,"<Point><coordinates>-80.058025,39.580701</coordinates></Point>"
,266,266,WV,38.6300660964603,-80.6755125104237,"<Point><coordinates>-80.794408,38.462358</coordinates></Point>"
,267,267,WV,39.2805174805882,-78.5767764864,"<Point><coordinates>-78.972157,39.346146</coordinates></Point>"
,268,268,WV,39.0771492349873,-78.7707376009288,"<Point><coordinates>-79.105083,38.884347</coordinates></Point>"
,820,820,WY,41.6488456726074,-105.947315216064,"<Point><coordinates>-105.314489,41.393097</coordinates></Point>"
,821,821,WY,44.5912516328927,-110.546493159218,"<Point><coordinates>-110.546493,44.591252</coordinates></Point>"
,822,822,WY,41.8454259514412,-105.533242078978,"<Point><coordinates>-104.673738,42.392894</coordinates></Point>"
,823,823,WY,42.0683675523485,-106.841316260249,"<Point><coordinates>-107.252752,41.775554</coordinates></Point>"
,824,824,WY,44.1377275,-108.2126935,"<Point><coordinates>-108.59571,44.259884</coordinates></Point>"
,825,825,WY,42.4623870849609,-108.182289123535,"<Point><coordinates>-108.761203,43.0191</coordinates></Point>"
,826,826,WY,43.0512580871582,-107.902603149414,"<Point><coordinates>-106.466236,43.102924</coordinates></Point>"
,827,827,WY,43.8337153193436,-105.111306652671,"<Point><coordinates>-105.007348,44.210359</coordinates></Point>"
,828,828,WY,44.81745196787,-106.884930214773,"<Point><coordinates>-106.729023,44.563203</coordinates></Point>"
,829,829,WY,41.149088000148,-109.555412083153,"<Point><coordinates>-109.586783,41.789511</coordinates></Point>"
,830,830,WY,43.5400199890137,-110.80757522583,"<Point><coordinates>-110.479726,43.676742</coordinates></Point>"
,831,831,WY,42.479133605957,-109.939037322998,"<Point><coordinates>-110.538984,42.3949</coordinates></Point>"
,834,834,WY,43.8630160218361,-110.885025101083,"<Point><coordinates>-110.885025,43.863016</coordinates></Point>"
